id,name,state_id,state_code,state_name,country_id,country_code,country_name,latitude,longitude,wikiDataId
48962,Chicksands,2336,ENG,England,232,GB,"United Kingdom",52.04585000,-0.36390000,Q1522731
48963,Chiddingfold,2336,ENG,England,232,GB,"United Kingdom",51.11866000,-0.62262000,Q1776354
48964,Chigwell,2336,ENG,England,232,GB,"United Kingdom",51.61999000,0.07596000,Q944734
48965,Chilcompton,2336,ENG,England,232,GB,"United Kingdom",51.26391000,-2.50502000,Q2081109
48966,"Child Okeford",2336,ENG,England,232,GB,"United Kingdom",50.91370000,-2.23679000,Q2153905
48967,"Chilton Foliat",2336,ENG,England,232,GB,"United Kingdom",51.43245000,-1.53912000,Q302598
48968,Chilworth,2336,ENG,England,232,GB,"United Kingdom",51.21635000,-0.53129000,Q5099267
48969,Chinley,2336,ENG,England,232,GB,"United Kingdom",53.34025000,-1.93900000,Q2410433
48970,Chinnor,2336,ENG,England,232,GB,"United Kingdom",51.70177000,-0.91161000,Q2344562
48971,Chippenham,2336,ENG,England,232,GB,"United Kingdom",51.46000000,-2.12472000,Q775299
48972,"Chipping Campden",2336,ENG,England,232,GB,"United Kingdom",52.04964000,-1.77670000,Q767811
48973,"Chipping Norton",2336,ENG,England,232,GB,"United Kingdom",51.94109000,-1.54530000,Q1065474
48974,"Chipping Ongar",2336,ENG,England,232,GB,"United Kingdom",51.70379000,0.24548000,Q2069940
48975,"Chipping Sodbury",2336,ENG,England,232,GB,"United Kingdom",51.53813000,-2.39379000,Q666295
48978,Chiseldon,2336,ENG,England,232,GB,"United Kingdom",51.51606000,-1.73206000,Q1922836
48979,Chislehurst,2336,ENG,England,232,GB,"United Kingdom",51.41709000,0.06858000,Q1922836
48980,Chobham,2336,ENG,England,232,GB,"United Kingdom",51.34836000,-0.60639000,Q1986679
48981,Cholsey,2336,ENG,England,232,GB,"United Kingdom",51.57280000,-1.15356000,Q5049410
48982,Choppington,2336,ENG,England,232,GB,"United Kingdom",55.15004000,-1.60332000,Q5104873
48983,Chopwell,2336,ENG,England,232,GB,"United Kingdom",54.91797000,-1.82013000,Q5104893
48984,Chorley,2336,ENG,England,232,GB,"United Kingdom",53.65000000,-2.61667000,Q2078535
48985,Chorleywood,2336,ENG,England,232,GB,"United Kingdom",51.65472000,-0.51404000,Q2335129
48986,Chorlton,2336,ENG,England,232,GB,"United Kingdom",53.05029000,-2.40541000,Q5105176
48987,"Chorlton cum Hardy",2336,ENG,England,232,GB,"United Kingdom",53.43505000,-2.26310000,Q1024118
48988,Christchurch,2336,ENG,England,232,GB,"United Kingdom",50.73583000,-1.78129000,Q925424
48990,Chudleigh,2336,ENG,England,232,GB,"United Kingdom",50.60496000,-3.60031000,Q1218515
48991,"Chudleigh Knighton",2336,ENG,England,232,GB,"United Kingdom",50.58507000,-3.63187000,Q5115914
48992,Chulmleigh,2336,ENG,England,232,GB,"United Kingdom",50.91289000,-3.86938000,Q1218627
48993,Church,2336,ENG,England,232,GB,"United Kingdom",53.75177000,-2.39121000,Q2427568
48994,"Church Fenton",2336,ENG,England,232,GB,"United Kingdom",53.82626000,-1.21890000,Q4412125
48995,"Church Stretton",2336,ENG,England,232,GB,"United Kingdom",52.53778000,-2.80149000,Q867120
48996,Churchdown,2336,ENG,England,232,GB,"United Kingdom",51.87739000,-2.17087000,Q2659033
48997,Churchill,2336,ENG,England,232,GB,"United Kingdom",51.34291000,-2.78338000,Q2126341
48998,Churt,2336,ENG,England,232,GB,"United Kingdom",51.13603000,-0.77534000,Q1790272
48999,Cinderford,2336,ENG,England,232,GB,"United Kingdom",51.82421000,-2.49870000,Q1242795
49000,Cirencester,2336,ENG,England,232,GB,"United Kingdom",51.71927000,-1.97145000,Q852772
49001,"City and Borough of Birmingham",2336,ENG,England,232,GB,"United Kingdom",52.48048000,-1.89823000,Q20986424
49002,"City and Borough of Leeds",2336,ENG,England,232,GB,"United Kingdom",53.79644000,-1.54770000,Q774015
49003,"City and Borough of Salford",2336,ENG,England,232,GB,"United Kingdom",53.50000000,-2.33333000,Q1142118
49004,"City and Borough of Wakefield",2336,ENG,England,232,GB,"United Kingdom",53.68085000,-1.49895000,Q763171
49007,"City of Bristol",2336,ENG,England,232,GB,"United Kingdom",51.45000000,-2.60000000,Q21693433
49009,"City of Kingston upon Hull",2336,ENG,England,232,GB,"United Kingdom",53.75000000,-0.33333000,Q21885987
49010,"City of Leicester",2336,ENG,England,232,GB,"United Kingdom",52.63333000,-1.13333000,Q21683242
49011,"City of London",2336,ENG,England,232,GB,"United Kingdom",51.51279000,-0.09184000,Q23311
49012,"City of Westminster",2336,ENG,England,232,GB,"United Kingdom",51.49750000,-0.13570000,Q23311
49013,"City of York",2336,ENG,England,232,GB,"United Kingdom",53.96396000,-1.09142000,Q20986421
49016,Clacton-on-Sea,2336,ENG,England,232,GB,"United Kingdom",51.78967000,1.15597000,Q985833
49017,Clapham,2336,ENG,England,232,GB,"United Kingdom",52.16085000,-0.49529000,Q1520409
49018,Clarborough,2336,ENG,England,232,GB,"United Kingdom",53.34549000,-0.90382000,Q5126097
49019,Clare,2336,ENG,England,232,GB,"United Kingdom",52.07861000,0.58167000,Q2559341
49021,Claydon,2336,ENG,England,232,GB,"United Kingdom",52.10672000,1.11134000,Q3242544
49022,Claypole,2336,ENG,England,232,GB,"United Kingdom",53.03144000,-0.73407000,Q5130128
49024,"Clayton le Moors",2336,ENG,England,232,GB,"United Kingdom",53.76667000,-2.38333000,Q927181
49023,"Clayton West",2336,ENG,England,232,GB,"United Kingdom",53.59501000,-1.61107000,Q5130366
49025,Clayton-le-Woods,2336,ENG,England,232,GB,"United Kingdom",53.69689000,-2.66818000,Q3243751
49026,"Cleator Moor",2336,ENG,England,232,GB,"United Kingdom",54.52143000,-3.51590000,Q677656
49027,Cleckheaton,2336,ENG,England,232,GB,"United Kingdom",53.72405000,-1.71294000,Q1022447
49028,Cleethorpes,2336,ENG,England,232,GB,"United Kingdom",53.56047000,-0.03225000,Q587765
49030,Clenchwarton,2336,ENG,England,232,GB,"United Kingdom",52.75604000,0.35790000,Q5131603
49031,"Cleobury Mortimer",2336,ENG,England,232,GB,"United Kingdom",52.37853000,-2.48196000,Q2575384
49032,Clerkenwell,2336,ENG,England,232,GB,"United Kingdom",51.52438000,-0.11022000,Q2575384
49033,Clevedon,2336,ENG,England,232,GB,"United Kingdom",51.44227000,-2.85786000,Q670079
49034,Cleveleys,2336,ENG,England,232,GB,"United Kingdom",53.87750000,-3.03987000,Q371507
49035,Cliffe,2336,ENG,England,232,GB,"United Kingdom",51.46224000,0.49833000,Q5132825
49036,Clifton,2336,ENG,England,232,GB,"United Kingdom",52.03990000,-0.30051000,Q1520296
49037,Clitheroe,2336,ENG,England,232,GB,"United Kingdom",53.86667000,-2.40000000,Q1008765
49038,Clive,2336,ENG,England,232,GB,"United Kingdom",52.81335000,-2.72295000,Q2254403
49039,Clophill,2336,ENG,England,232,GB,"United Kingdom",52.02727000,-0.42377000,Q1520109
49040,Clowne,2336,ENG,England,232,GB,"United Kingdom",53.27449000,-1.26406000,Q2471775
49041,Clutton,2336,ENG,England,232,GB,"United Kingdom",51.32944000,-2.54306000,Q2098144
49047,Coalville,2336,ENG,England,232,GB,"United Kingdom",52.72247000,-1.37020000,Q955589
49049,Coates,2336,ENG,England,232,GB,"United Kingdom",51.70750000,-2.03389000,Q5138606
49050,Cobham,2336,ENG,England,232,GB,"United Kingdom",51.32997000,-0.41130000,Q1006990
49052,Cockermouth,2336,ENG,England,232,GB,"United Kingdom",54.66209000,-3.36086000,Q241684
49053,Cockfield,2336,ENG,England,232,GB,"United Kingdom",54.61373000,-1.80897000,Q2104665
49054,Cockington,2336,ENG,England,232,GB,"United Kingdom",50.46335000,-3.55691000,Q5139618
49055,Codicote,2336,ENG,England,232,GB,"United Kingdom",51.85052000,-0.23670000,Q5140287
49056,Codsall,2336,ENG,England,232,GB,"United Kingdom",52.62989000,-2.20148000,Q2313618
49058,Cogenhoe,2336,ENG,England,232,GB,"United Kingdom",52.23758000,-0.78381000,Q5141092
49059,Coggeshall,2336,ENG,England,232,GB,"United Kingdom",51.87077000,0.68536000,Q1013398
49061,Colchester,2336,ENG,England,232,GB,"United Kingdom",51.88921000,0.90421000,Q184163
49062,"Cold Ash",2336,ENG,England,232,GB,"United Kingdom",51.42426000,-1.26463000,Q2182890
49063,"Cold Norton",2336,ENG,England,232,GB,"United Kingdom",51.67209000,0.66997000,Q2458232
49064,"Colden Common",2336,ENG,England,232,GB,"United Kingdom",50.99483000,-1.31143000,Q2020511
49066,Coleford,2336,ENG,England,232,GB,"United Kingdom",51.79535000,-2.61354000,Q747798
49068,Colerne,2336,ENG,England,232,GB,"United Kingdom",51.43833000,-2.26280000,Q2530698
49070,"Collier Row",2336,ENG,England,232,GB,"United Kingdom",51.59893000,0.16600000,Q2530698
49071,"Collingbourne Kingston",2336,ENG,England,232,GB,"United Kingdom",51.30105000,-1.65876000,Q642675
49072,Collingham,2336,ENG,England,232,GB,"United Kingdom",53.91167000,-1.41174000,Q2592080
49073,Colnbrook,2336,ENG,England,232,GB,"United Kingdom",51.48384000,-0.52142000,Q1846916
49074,Colne,2336,ENG,England,232,GB,"United Kingdom",53.85713000,-2.16851000,Q2374484
49075,Colsterworth,2336,ENG,England,232,GB,"United Kingdom",52.80660000,-0.62056000,Q2224325
49076,Coltishall,2336,ENG,England,232,GB,"United Kingdom",52.72804000,1.36653000,Q1009661
49077,Colwich,2336,ENG,England,232,GB,"United Kingdom",52.78764000,-1.98206000,Q3036914
49079,Colyton,2336,ENG,England,232,GB,"United Kingdom",50.74006000,-3.07021000,Q1113106
49080,"Combe Martin",2336,ENG,England,232,GB,"United Kingdom",51.19873000,-4.02343000,Q1225823
49082,Comberton,2336,ENG,England,232,GB,"United Kingdom",52.18709000,0.01905000,Q2854248
49083,Compton,2336,ENG,England,232,GB,"United Kingdom",51.02385000,-1.33713000,Q24651806
49084,"Compton Martin",2336,ENG,England,232,GB,"United Kingdom",51.31056000,-2.65528000,Q2311927
49086,Congleton,2336,ENG,England,232,GB,"United Kingdom",53.16314000,-2.21253000,Q1125738
49087,Congresbury,2336,ENG,England,232,GB,"United Kingdom",51.37135000,-2.81018000,Q1975999
49088,Coningsby,2336,ENG,England,232,GB,"United Kingdom",53.10598000,-0.17595000,Q2008682
49089,Conisbrough,2336,ENG,England,232,GB,"United Kingdom",53.48188000,-1.23214000,Q2734822
49092,Consett,2336,ENG,England,232,GB,"United Kingdom",54.85404000,-1.83160000,Q2080364
49094,Cookham,2336,ENG,England,232,GB,"United Kingdom",51.55936000,-0.70810000,Q1129607
49095,Cookley,2336,ENG,England,232,GB,"United Kingdom",52.31667000,1.45000000,Q3544583
49097,Cople,2336,ENG,England,232,GB,"United Kingdom",52.12342000,-0.38933000,Q1520369
49098,Copmanthorpe,2336,ENG,England,232,GB,"United Kingdom",53.91419000,-1.14209000,Q4657176
49099,Copplestone,2336,ENG,England,232,GB,"United Kingdom",50.81073000,-3.74607000,Q3542966
49100,Coppull,2336,ENG,England,232,GB,"United Kingdom",53.62527000,-2.65854000,Q2049676
49101,Copthorne,2336,ENG,England,232,GB,"United Kingdom",51.13929000,-0.11742000,Q5169012
49102,Corbridge,2336,ENG,England,232,GB,"United Kingdom",54.97365000,-2.01798000,Q122953
49103,Corby,2336,ENG,England,232,GB,"United Kingdom",52.49637000,-0.68939000,Q994925
49104,"Corby Glen",2336,ENG,England,232,GB,"United Kingdom",52.81262000,-0.51817000,Q994925
49105,"Corfe Castle",2336,ENG,England,232,GB,"United Kingdom",50.63947000,-2.05672000,Q13341461
49106,Cornholme,2336,ENG,England,232,GB,"United Kingdom",53.73230000,-2.13851000,Q5171740
49107,Cornwall,2336,ENG,England,232,GB,"United Kingdom",50.41667000,-4.75000000,Q22338583
49108,Corse,2336,ENG,England,232,GB,"United Kingdom",51.95943000,-2.30636000,Q5173140
49109,Corsham,2336,ENG,England,232,GB,"United Kingdom",51.43433000,-2.18437000,Q663095
49110,Corston,2336,ENG,England,232,GB,"United Kingdom",51.38500000,-2.44028000,Q2469566
49111,Cosby,2336,ENG,England,232,GB,"United Kingdom",52.55127000,-1.19395000,Q5173848
49112,Cosham,2336,ENG,England,232,GB,"United Kingdom",50.84654000,-1.06344000,Q5173908
49113,Costessey,2336,ENG,England,232,GB,"United Kingdom",52.65914000,1.20970000,Q2201571
49114,Cotgrave,2336,ENG,England,232,GB,"United Kingdom",52.90859000,-1.03752000,Q728638
49115,Cottenham,2336,ENG,England,232,GB,"United Kingdom",52.28743000,0.12540000,Q1827217
49116,Cottesmore,2336,ENG,England,232,GB,"United Kingdom",52.71384000,-0.66330000,Q2399304
49117,Cottingham,2336,ENG,England,232,GB,"United Kingdom",52.50243000,-0.75540000,Q1900484
49118,Coulsdon,2336,ENG,England,232,GB,"United Kingdom",51.32002000,-0.14088000,Q1900484
49119,Coundon,2336,ENG,England,232,GB,"United Kingdom",54.66280000,-1.62688000,Q11691577
49120,Countesthorpe,2336,ENG,England,232,GB,"United Kingdom",52.55379000,-1.14526000,Q1612902
49121,"County Durham",2336,ENG,England,232,GB,"United Kingdom",54.77680000,-1.57575000,Q1137286
49126,Coven,2336,ENG,England,232,GB,"United Kingdom",52.65587000,-2.13530000,Q1011681
49127,Coventry,2336,ENG,England,232,GB,"United Kingdom",52.40656000,-1.51217000,Q6225
49128,Cowbit,2336,ENG,England,232,GB,"United Kingdom",52.74523000,-0.12978000,Q5179503
49131,Cowes,2336,ENG,England,232,GB,"United Kingdom",50.76306000,-1.29772000,Q587996
49132,Cowfold,2336,ENG,England,232,GB,"United Kingdom",50.98945000,-0.27243000,Q2465956
49134,Cowley,2336,ENG,England,232,GB,"United Kingdom",51.73213000,-1.20631000,Q1953777
49135,Cowplain,2336,ENG,England,232,GB,"United Kingdom",50.89411000,-1.01824000,Q5179814
49136,Coxhoe,2336,ENG,England,232,GB,"United Kingdom",54.71475000,-1.50356000,Q2245757
49138,"Cradley Heath",2336,ENG,England,232,GB,"United Kingdom",52.47214000,-2.08212000,Q3001983
49141,Cramlington,2336,ENG,England,232,GB,"United Kingdom",55.08652000,-1.58598000,Q918787
49142,Cranbrook,2336,ENG,England,232,GB,"United Kingdom",51.09662000,0.53567000,Q2160826
49143,Cranfield,2336,ENG,England,232,GB,"United Kingdom",52.06869000,-0.60884000,Q1522979
49144,Cranham,2336,ENG,England,232,GB,"United Kingdom",51.56565000,0.26590000,Q1522979
49145,Cranleigh,2336,ENG,England,232,GB,"United Kingdom",51.14209000,-0.48374000,Q2681944
49146,Cranwell,2336,ENG,England,232,GB,"United Kingdom",53.03681000,-0.46176000,Q2193794
49147,"Craven Arms",2336,ENG,England,232,GB,"United Kingdom",52.44308000,-2.83562000,Q869556
49148,Crawley,2336,ENG,England,232,GB,"United Kingdom",51.11303000,-0.18312000,Q844908
49149,"Crawley Down",2336,ENG,England,232,GB,"United Kingdom",51.12061000,-0.07730000,Q5182980
49150,Credenhill,2336,ENG,England,232,GB,"United Kingdom",52.08351000,-2.80804000,Q372195
49151,Crediton,2336,ENG,England,232,GB,"United Kingdom",50.78333000,-3.65000000,Q1139440
49152,"Creech Saint Michael",2336,ENG,England,232,GB,"United Kingdom",51.02333000,-3.03833000,Q2080762
49153,Creswell,2336,ENG,England,232,GB,"United Kingdom",53.26287000,-1.21987000,Q5184679
49154,Crewe,2336,ENG,England,232,GB,"United Kingdom",53.09787000,-2.44161000,Q648810
49155,Crewkerne,2336,ENG,England,232,GB,"United Kingdom",50.88298000,-2.79588000,Q1234905
49157,Crick,2336,ENG,England,232,GB,"United Kingdom",52.34808000,-1.13708000,Q2025703
49159,Cricklade,2336,ENG,England,232,GB,"United Kingdom",51.64061000,-1.85738000,Q533456
49161,Cringleford,2336,ENG,England,232,GB,"United Kingdom",52.60482000,1.24334000,Q2187751
49163,Croft,2336,ENG,England,232,GB,"United Kingdom",52.55668000,-1.24643000,Q3698285
49164,Crofton,2336,ENG,England,232,GB,"United Kingdom",53.65639000,-1.42968000,Q2740386
49166,Cromer,2336,ENG,England,232,GB,"United Kingdom",52.93123000,1.29892000,Q208296
49167,Cromford,2336,ENG,England,232,GB,"United Kingdom",53.10848000,-1.56014000,Q1000915
49168,Crondall,2336,ENG,England,232,GB,"United Kingdom",51.23285000,-0.86329000,Q668762
49169,Crook,2336,ENG,England,232,GB,"United Kingdom",54.71252000,-1.74970000,Q1140962
49170,"Cropwell Bishop",2336,ENG,England,232,GB,"United Kingdom",52.91480000,-0.98482000,Q2685274
49171,Crosby,2336,ENG,England,232,GB,"United Kingdom",53.47778000,-3.03333000,Q1141046
49173,"Cross Hills",2336,ENG,England,232,GB,"United Kingdom",53.90606000,-1.98492000,Q5188314
49179,Croston,2336,ENG,England,232,GB,"United Kingdom",53.66217000,-2.77523000,Q3226959
49180,"Crouch End",2336,ENG,England,232,GB,"United Kingdom",51.57971000,-0.12373000,Q3226959
49181,Crowborough,2336,ENG,England,232,GB,"United Kingdom",51.06098000,0.16342000,Q179259
49182,Crowland,2336,ENG,England,232,GB,"United Kingdom",52.67571000,-0.16849000,Q581158
49183,Crowle,2336,ENG,England,232,GB,"United Kingdom",53.60753000,-0.83256000,Q2575465
49184,Crowthorne,2336,ENG,England,232,GB,"United Kingdom",51.37027000,-0.79219000,Q1833112
49186,Croydon,2336,ENG,England,232,GB,"United Kingdom",51.38333000,-0.10000000,Q2213391
49190,Crumpsall,2336,ENG,England,232,GB,"United Kingdom",53.51827000,-2.24447000,Q2341373
49193,Cuckfield,2336,ENG,England,232,GB,"United Kingdom",51.01073000,-0.14068000,Q1952683
49194,Cuddington,2336,ENG,England,232,GB,"United Kingdom",53.24488000,-2.61879000,Q2346743
49195,Cudworth,2336,ENG,England,232,GB,"United Kingdom",53.57131000,-1.41595000,Q954528
49196,Cuffley,2336,ENG,England,232,GB,"United Kingdom",51.70799000,-0.11209000,Q1968915
49197,Culcheth,2336,ENG,England,232,GB,"United Kingdom",53.45110000,-2.52104000,Q5192880
49199,Cullingworth,2336,ENG,England,232,GB,"United Kingdom",53.82444000,-1.89730000,Q3362593
49201,Cullompton,2336,ENG,England,232,GB,"United Kingdom",50.85530000,-3.39268000,Q668275
49205,"Culverstone Green",2336,ENG,England,232,GB,"United Kingdom",51.34085000,0.34686000,Q1143533
49207,Cumbria,2336,ENG,England,232,GB,"United Kingdom",54.58333000,-2.83333000,Q23066
49210,Curdworth,2336,ENG,England,232,GB,"United Kingdom",52.53382000,-1.73687000,Q2381361
49212,"Curry Rivel",2336,ENG,England,232,GB,"United Kingdom",51.02306000,-2.86753000,Q2445736
49214,Cuxton,2336,ENG,England,232,GB,"United Kingdom",51.37430000,0.45688000,Q2961323
49219,Dagenham,2336,ENG,England,232,GB,"United Kingdom",51.55000000,0.16667000,Q1075299
49227,Dalston,2336,ENG,England,232,GB,"United Kingdom",54.84207000,-2.98459000,Q5211630
49228,"Dalton in Furness",2336,ENG,England,232,GB,"United Kingdom",54.15796000,-3.17977000,Q1158089
49229,Danbury,2336,ENG,England,232,GB,"United Kingdom",51.71645000,0.58245000,Q1021042
49230,Danby,2336,ENG,England,232,GB,"United Kingdom",54.46606000,-0.91073000,Q2611576
49232,Darenth,2336,ENG,England,232,GB,"United Kingdom",51.42137000,0.25784000,Q963988
49233,Daresbury,2336,ENG,England,232,GB,"United Kingdom",53.34184000,-2.63500000,Q990170
49234,Darfield,2336,ENG,England,232,GB,"United Kingdom",53.53390000,-1.37595000,Q676757
49235,Darlaston,2336,ENG,England,232,GB,"United Kingdom",52.56667000,-2.03333000,Q2571235
49236,Darlington,2336,ENG,England,232,GB,"United Kingdom",54.53333000,-1.53333000,Q1171024
49237,"Darras Hall",2336,ENG,England,232,GB,"United Kingdom",55.03560000,-1.76425000,Q1171024
49238,Darrington,2336,ENG,England,232,GB,"United Kingdom",53.67566000,-1.26901000,Q5225309
49239,Dartford,2336,ENG,England,232,GB,"United Kingdom",51.44657000,0.21423000,Q858775
49240,Dartmouth,2336,ENG,England,232,GB,"United Kingdom",50.35220000,-3.57940000,Q1007083
49241,Darton,2336,ENG,England,232,GB,"United Kingdom",53.58705000,-1.52676000,Q1617106
49243,Darwen,2336,ENG,England,232,GB,"United Kingdom",53.69803000,-2.46494000,Q1166842
49244,Datchet,2336,ENG,England,232,GB,"United Kingdom",51.48390000,-0.57893000,Q285778
49245,Datchworth,2336,ENG,England,232,GB,"United Kingdom",51.85126000,-0.15956000,Q5227510
49246,Daventry,2336,ENG,England,232,GB,"United Kingdom",52.25688000,-1.16066000,Q641756
49247,Dawlish,2336,ENG,England,232,GB,"United Kingdom",50.58118000,-3.46644000,Q1248368
49248,Deal,2336,ENG,England,232,GB,"United Kingdom",51.22322000,1.40432000,Q1011096
49249,Deanshanger,2336,ENG,England,232,GB,"United Kingdom",52.04996000,-0.88663000,Q2914686
49250,Dearham,2336,ENG,England,232,GB,"United Kingdom",54.71175000,-3.44364000,Q2855567
49251,Debenham,2336,ENG,England,232,GB,"United Kingdom",52.22422000,1.18172000,Q2146674
49252,Deddington,2336,ENG,England,232,GB,"United Kingdom",51.98060000,-1.32055000,Q1981775
49253,Dedham,2336,ENG,England,232,GB,"United Kingdom",51.95892000,0.99336000,Q2037687
49257,Delabole,2336,ENG,England,232,GB,"United Kingdom",50.62347000,-4.73190000,Q5253057
49258,Delph,2336,ENG,England,232,GB,"United Kingdom",53.56667000,-2.01667000,Q3705152
49261,"Denby Dale",2336,ENG,England,232,GB,"United Kingdom",53.57228000,-1.65895000,Q3022297
49262,Denham,2336,ENG,England,232,GB,"United Kingdom",51.56667000,-0.50000000,Q988761
49263,Denholme,2336,ENG,England,232,GB,"United Kingdom",53.80189000,-1.89503000,Q2342182
49264,Denmead,2336,ENG,England,232,GB,"United Kingdom",50.90395000,-1.06744000,Q2779993
49267,Denton,2336,ENG,England,232,GB,"United Kingdom",53.45678000,-2.11822000,Q2023476
49268,"Denton Holme",2336,ENG,England,232,GB,"United Kingdom",54.88500000,-2.94100000,Q2023476
49269,Derby,2336,ENG,England,232,GB,"United Kingdom",52.92277000,-1.47663000,Q43475
49270,Derbyshire,2336,ENG,England,232,GB,"United Kingdom",53.16667000,-1.58333000,Q11775003
49274,Dersingham,2336,ENG,England,232,GB,"United Kingdom",52.84549000,0.50339000,Q1779758
49275,Desborough,2336,ENG,England,232,GB,"United Kingdom",52.44183000,-0.82126000,Q1838917
49276,Desford,2336,ENG,England,232,GB,"United Kingdom",52.62598000,-1.29395000,Q1838917
49277,Devizes,2336,ENG,England,232,GB,"United Kingdom",51.35084000,-1.99421000,Q1026699
49278,Devon,2336,ENG,England,232,GB,"United Kingdom",50.75000000,-3.75000000,Q21694695
49279,Dewsbury,2336,ENG,England,232,GB,"United Kingdom",53.69076000,-1.62907000,Q525508
49280,"Dickens Heath",2336,ENG,England,232,GB,"United Kingdom",52.38568000,-1.83935000,Q5273619
49281,Dickleburgh,2336,ENG,England,232,GB,"United Kingdom",52.39650000,1.18498000,Q3464044
49282,Didcot,2336,ENG,England,232,GB,"United Kingdom",51.60928000,-1.24214000,Q1009242
49283,Didsbury,2336,ENG,England,232,GB,"United Kingdom",53.41698000,-2.23145000,Q1210672
49284,Diggle,2336,ENG,England,232,GB,"United Kingdom",53.56744000,-1.99723000,Q5275671
49287,Dinnington,2336,ENG,England,232,GB,"United Kingdom",53.36667000,-1.20000000,Q2296611
49288,Dinton,2336,ENG,England,232,GB,"United Kingdom",51.08333000,-1.98333000,Q3028477
49289,Disley,2336,ENG,England,232,GB,"United Kingdom",53.35865000,-2.03848000,Q23063
49290,Diss,2336,ENG,England,232,GB,"United Kingdom",52.37675000,1.10910000,Q1229288
49291,Distington,2336,ENG,England,232,GB,"United Kingdom",54.59733000,-3.53880000,Q3242365
49292,"District of Rutland",2336,ENG,England,232,GB,"United Kingdom",52.66667000,-0.66667000,Q23107
49293,Ditchingham,2336,ENG,England,232,GB,"United Kingdom",52.46729000,1.44370000,Q2663539
49294,Ditchling,2336,ENG,England,232,GB,"United Kingdom",50.92100000,-0.11536000,Q3270518
49295,"Ditton Hill",2336,ENG,England,232,GB,"United Kingdom",51.37947000,-0.31281000,Q3270518
49297,Dobwalls,2336,ENG,England,232,GB,"United Kingdom",50.45768000,-4.51735000,Q5286983
49298,Doddington,2336,ENG,England,232,GB,"United Kingdom",52.49671000,0.06017000,Q1981435
49299,Dodworth,2336,ENG,England,232,GB,"United Kingdom",53.54306000,-1.52779000,Q959905
49303,Doncaster,2336,ENG,England,232,GB,"United Kingdom",53.50000000,-1.08333000,Q1925846
49304,Donington,2336,ENG,England,232,GB,"United Kingdom",52.90461000,-0.20505000,Q1241544
49305,Donisthorpe,2336,ENG,England,232,GB,"United Kingdom",52.72401000,-1.53800000,Q965115
49306,Donnington,2336,ENG,England,232,GB,"United Kingdom",51.95135000,-1.72142000,Q5296701
49307,Dorchester,2336,ENG,England,232,GB,"United Kingdom",50.71667000,-2.43333000,Q503331
49308,Dorking,2336,ENG,England,232,GB,"United Kingdom",51.23228000,-0.33380000,Q540333
49309,Dormansland,2336,ENG,England,232,GB,"United Kingdom",51.16024000,0.00618000,Q2304321
49311,Dorridge,2336,ENG,England,232,GB,"United Kingdom",52.37259000,-1.75318000,Q3714394
49312,Dorset,2336,ENG,England,232,GB,"United Kingdom",50.75000000,-2.33333000,Q21694711
49313,Dorstone,2336,ENG,England,232,GB,"United Kingdom",52.06667000,-3.00000000,Q2613273
49316,"Dove Holes",2336,ENG,England,232,GB,"United Kingdom",53.29828000,-1.88775000,Q751183
49317,Dover,2336,ENG,England,232,GB,"United Kingdom",51.12598000,1.31257000,Q179224
49318,Dovercourt,2336,ENG,England,232,GB,"United Kingdom",51.93649000,1.27831000,Q2186876
49319,Doveridge,2336,ENG,England,232,GB,"United Kingdom",52.90526000,-1.82480000,Q289045
49320,"Downham Market",2336,ENG,England,232,GB,"United Kingdom",52.60714000,0.38375000,Q1253266
49322,Downton,2336,ENG,England,232,GB,"United Kingdom",50.99366000,-1.75129000,Q2110657
49324,Draycott,2336,ENG,England,232,GB,"United Kingdom",51.25615000,-2.75116000,Q5306087
49326,Driffield,2336,ENG,England,232,GB,"United Kingdom",54.00613000,-0.44495000,Q611046
49327,Droitwich,2336,ENG,England,232,GB,"United Kingdom",52.26667000,-2.15000000,Q1260116
49329,Dronfield,2336,ENG,England,232,GB,"United Kingdom",53.30221000,-1.47507000,Q2499345
49331,Droylsden,2336,ENG,England,232,GB,"United Kingdom",53.48005000,-2.14543000,Q305076
49333,Drybrook,2336,ENG,England,232,GB,"United Kingdom",51.85550000,-2.51681000,Q2278670
49334,Ducklington,2336,ENG,England,232,GB,"United Kingdom",51.76763000,-1.48418000,Q2785955
49335,Dudley,2336,ENG,England,232,GB,"United Kingdom",52.50000000,-2.11667000,Q1617704
49336,Duffield,2336,ENG,England,232,GB,"United Kingdom",52.98627000,-1.48865000,Q2749481
49338,Dukinfield,2336,ENG,England,232,GB,"United Kingdom",53.47497000,-2.08809000,Q1976179
49339,Dulverton,2336,ENG,England,232,GB,"United Kingdom",51.04007000,-3.55035000,Q749338
49345,Dunchurch,2336,ENG,England,232,GB,"United Kingdom",52.33757000,-1.29136000,Q3041276
49351,Dundry,2336,ENG,England,232,GB,"United Kingdom",51.39880000,-2.63964000,Q2518710
49355,Dunholme,2336,ENG,England,232,GB,"United Kingdom",53.30067000,-0.46541000,Q5315274
49357,Dunkeswell,2336,ENG,England,232,GB,"United Kingdom",50.86301000,-3.22289000,Q746449
49360,Dunnington,2336,ENG,England,232,GB,"United Kingdom",53.95000000,-0.25000000,Q5315605
49363,Dunstable,2336,ENG,England,232,GB,"United Kingdom",51.88571000,-0.52288000,Q919778
49364,Dunswell,2336,ENG,England,232,GB,"United Kingdom",53.80106000,-0.37139000,Q5315748
49366,Durham,2336,ENG,England,232,GB,"United Kingdom",54.77676000,-1.57566000,Q179815
49367,Dursley,2336,ENG,England,232,GB,"United Kingdom",51.68139000,-2.35333000,Q681043
49368,Duxford,2336,ENG,England,232,GB,"United Kingdom",52.09393000,0.15917000,Q1268125
49371,Dymchurch,2336,ENG,England,232,GB,"United Kingdom",51.02544000,0.99392000,Q2796278
49373,Eaglescliffe,2336,ENG,England,232,GB,"United Kingdom",54.52521000,-1.35043000,Q1612793
49375,Earby,2336,ENG,England,232,GB,"United Kingdom",53.91546000,-2.14285000,Q2193132
49376,Earith,2336,ENG,England,232,GB,"United Kingdom",52.35422000,0.03056000,Q2622643
49377,"Earl Shilton",2336,ENG,England,232,GB,"United Kingdom",52.57682000,-1.31536000,Q1612134
49378,"Earls Barton",2336,ENG,England,232,GB,"United Kingdom",52.26627000,-0.75248000,Q2657567
49379,"Earls Colne",2336,ENG,England,232,GB,"United Kingdom",51.92744000,0.70107000,Q643686
49380,Earlsfield,2336,ENG,England,232,GB,"United Kingdom",51.44390000,-0.18540000,Q643686
49382,Easington,2336,ENG,England,232,GB,"United Kingdom",54.78528000,-1.35917000,Q2734833
49383,Easingwold,2336,ENG,England,232,GB,"United Kingdom",54.12010000,-1.19390000,Q1277696
49385,"East Ayton",2336,ENG,England,232,GB,"United Kingdom",54.25480000,-0.47483000,Q4488389
49386,"East Bergholt",2336,ENG,England,232,GB,"United Kingdom",51.97785000,1.01761000,Q2185491
49387,"East Boldon",2336,ENG,England,232,GB,"United Kingdom",54.94452000,-1.42815000,Q2185491
49388,"East Bridgford",2336,ENG,England,232,GB,"United Kingdom",52.97954000,-0.96563000,Q5327942
49390,"East Chevington",2336,ENG,England,232,GB,"United Kingdom",55.28333000,-1.58333000,Q5327978
49391,"East Cowes",2336,ENG,England,232,GB,"United Kingdom",50.75774000,-1.28815000,Q2987335
49392,"East Dean",2336,ENG,England,232,GB,"United Kingdom",51.03979000,-1.60941000,Q2987335
49393,"East Dereham",2336,ENG,England,232,GB,"United Kingdom",52.68333000,0.93333000,Q302893
49395,"East Grinstead",2336,ENG,England,232,GB,"United Kingdom",51.12382000,-0.00610000,Q1277887
49396,"East Hanney",2336,ENG,England,232,GB,"United Kingdom",51.63443000,-1.39518000,Q1948623
49397,"East Harling",2336,ENG,England,232,GB,"United Kingdom",52.43843000,0.93353000,Q2687567
49398,"East Harptree",2336,ENG,England,232,GB,"United Kingdom",51.30111000,-2.62167000,Q2369894
49399,"East Horsley",2336,ENG,England,232,GB,"United Kingdom",51.27358000,-0.43207000,Q4526050
49400,"East Keswick",2336,ENG,England,232,GB,"United Kingdom",53.89430000,-1.45221000,Q2050224
49402,"East Leake",2336,ENG,England,232,GB,"United Kingdom",52.83015000,-1.18103000,Q1807493
49405,"East Markham",2336,ENG,England,232,GB,"United Kingdom",53.25221000,-0.89385000,Q1967854
49406,"East Molesey",2336,ENG,England,232,GB,"United Kingdom",51.39872000,-0.34916000,Q1967854
49407,"East Peckham",2336,ENG,England,232,GB,"United Kingdom",51.21234000,0.38624000,Q2346872
49408,"East Rainton",2336,ENG,England,232,GB,"United Kingdom",54.82513000,-1.48036000,Q5329213
49410,"East Riding of Yorkshire",2336,ENG,England,232,GB,"United Kingdom",53.91667000,-0.50000000,Q21695028
49411,"East Sussex",2336,ENG,England,232,GB,"United Kingdom",50.91667000,0.33333000,Q21694646
49412,"East Tilbury",2336,ENG,England,232,GB,"United Kingdom",51.48053000,0.41714000,Q2135238
49415,"East Wittering",2336,ENG,England,232,GB,"United Kingdom",50.76969000,-0.87444000,Q2230943
49416,Eastbourne,2336,ENG,England,232,GB,"United Kingdom",50.76871000,0.28453000,Q208262
49417,Eastchurch,2336,ENG,England,232,GB,"United Kingdom",51.40673000,0.85766000,Q2661688
49418,Eastington,2336,ENG,England,232,GB,"United Kingdom",51.74722000,-2.32639000,Q957480
49419,Eastleigh,2336,ENG,England,232,GB,"United Kingdom",50.96667000,-1.35000000,Q731069
49420,Eastoft,2336,ENG,England,232,GB,"United Kingdom",53.63624000,-0.78492000,Q5330817
49421,Easton,2336,ENG,England,232,GB,"United Kingdom",50.53333000,-2.45000000,Q5330822
49422,"Easton on the Hill",2336,ENG,England,232,GB,"United Kingdom",52.62733000,-0.50571000,Q959589
49423,Easton-in-Gordano,2336,ENG,England,232,GB,"United Kingdom",51.47592000,-2.69987000,Q3895750
49425,Eastrington,2336,ENG,England,232,GB,"United Kingdom",53.76038000,-0.79325000,Q2141941
49426,Eastry,2336,ENG,England,232,GB,"United Kingdom",51.24639000,1.30776000,Q5330905
49427,Eastwood,2336,ENG,England,232,GB,"United Kingdom",53.00000000,-1.30000000,Q2736112
49428,"Eaton Bray",2336,ENG,England,232,GB,"United Kingdom",51.87697000,-0.59167000,Q1522066
49429,"Eaton Socon",2336,ENG,England,232,GB,"United Kingdom",52.21752000,-0.28925000,Q1520611
49430,Eattington,2336,ENG,England,232,GB,"United Kingdom",52.13333000,-1.60000000,Q926265
49432,Eccles,2336,ENG,England,232,GB,"United Kingdom",53.48333000,-2.33333000,Q2342197
49433,Eccleshall,2336,ENG,England,232,GB,"United Kingdom",52.85789000,-2.24971000,Q2123282
49434,Eccleston,2336,ENG,England,232,GB,"United Kingdom",53.64236000,-2.72162000,Q1911932
49435,Eckington,2336,ENG,England,232,GB,"United Kingdom",52.06667000,-2.11667000,Q5332910
49436,Edenbridge,2336,ENG,England,232,GB,"United Kingdom",51.19172000,0.06729000,Q947442
49437,Edenfield,2336,ENG,England,232,GB,"United Kingdom",53.66674000,-2.30481000,Q5336994
49438,Edgmond,2336,ENG,England,232,GB,"United Kingdom",52.77400000,-2.40967000,Q1624344
49439,Edgware,2336,ENG,England,232,GB,"United Kingdom",51.61280000,-0.27539000,Q1624344
49440,Edgworth,2336,ENG,England,232,GB,"United Kingdom",53.64636000,-2.39401000,Q5337968
49442,Edington,2336,ENG,England,232,GB,"United Kingdom",51.27583000,-2.10639000,Q1018659
49443,"Edith Weston",2336,ENG,England,232,GB,"United Kingdom",52.63786000,-0.63189000,Q2832567
49444,Edwinstowe,2336,ENG,England,232,GB,"United Kingdom",53.19454000,-1.06439000,Q994882
49445,Egham,2336,ENG,England,232,GB,"United Kingdom",51.43158000,-0.55239000,Q746681
49447,Egremont,2336,ENG,England,232,GB,"United Kingdom",54.47941000,-3.52756000,Q2486621
49448,"Eight Ash Green",2336,ENG,England,232,GB,"United Kingdom",51.89587000,0.82280000,Q2010318
49452,Elland,2336,ENG,England,232,GB,"United Kingdom",53.68510000,-1.83878000,Q2265847
49453,Ellerker,2336,ENG,England,232,GB,"United Kingdom",53.75323000,-0.60416000,Q2603169
49454,Ellerton,2336,ENG,England,232,GB,"United Kingdom",53.85000000,-0.93333000,Q2603169
49455,Ellesmere,2336,ENG,England,232,GB,"United Kingdom",52.90838000,-2.89806000,Q988970
49456,"Ellesmere Port",2336,ENG,England,232,GB,"United Kingdom",53.27875000,-2.90134000,Q1011600
49458,"Elm Park",2336,ENG,England,232,GB,"United Kingdom",51.54970000,0.20136000,Q1026799
49459,"Elmstead Market",2336,ENG,England,232,GB,"United Kingdom",51.88219000,0.99482000,Q5366916
49460,Elmswell,2336,ENG,England,232,GB,"United Kingdom",52.23616000,0.91247000,Q1950182
49461,Elsenham,2336,ENG,England,232,GB,"United Kingdom",51.91431000,0.22934000,Q1836076
49462,Elstead,2336,ENG,England,232,GB,"United Kingdom",51.18548000,-0.70536000,Q1927639
49463,Elstree,2336,ENG,England,232,GB,"United Kingdom",51.64030000,-0.29693000,Q19931
49464,Elswick,2336,ENG,England,232,GB,"United Kingdom",53.83836000,-2.88147000,Q2200132
49465,Elvington,2336,ENG,England,232,GB,"United Kingdom",53.92087000,-0.93495000,Q2227450
49466,Elwick,2336,ENG,England,232,GB,"United Kingdom",54.68455000,-1.29559000,Q5368292
49467,Ely,2336,ENG,England,232,GB,"United Kingdom",52.39964000,0.26196000,Q209176
49468,Emberton,2336,ENG,England,232,GB,"United Kingdom",52.13691000,-0.70673000,Q1780420
49469,Embleton,2336,ENG,England,232,GB,"United Kingdom",55.49592000,-1.63619000,Q2337102
49470,Embsay,2336,ENG,England,232,GB,"United Kingdom",53.97664000,-1.99282000,Q5370255
49471,Emley,2336,ENG,England,232,GB,"United Kingdom",53.61395000,-1.63130000,Q5372666
49472,Emneth,2336,ENG,England,232,GB,"United Kingdom",52.64244000,0.20857000,Q2408501
49473,Empingham,2336,ENG,England,232,GB,"United Kingdom",52.66722000,-0.59601000,Q995972
49474,Emsworth,2336,ENG,England,232,GB,"United Kingdom",50.84779000,-0.93697000,Q1219676
49475,Enderby,2336,ENG,England,232,GB,"United Kingdom",52.58778000,-1.20619000,Q1612237
49476,"Enfield Town",2336,ENG,England,232,GB,"United Kingdom",51.65147000,-0.08497000,Q544939
49478,Epping,2336,ENG,England,232,GB,"United Kingdom",51.69815000,0.11055000,Q990775
49479,Epsom,2336,ENG,England,232,GB,"United Kingdom",51.33050000,-0.27011000,Q993164
49480,Epworth,2336,ENG,England,232,GB,"United Kingdom",53.52602000,-0.82399000,Q2409258
49481,Erith,2336,ENG,England,232,GB,"United Kingdom",51.48315000,0.17484000,Q2409258
49484,Esher,2336,ENG,England,232,GB,"United Kingdom",51.36969000,-0.36693000,Q637482
49485,Essendine,2336,ENG,England,232,GB,"United Kingdom",52.70187000,-0.45250000,Q1613175
49486,Essex,2336,ENG,England,232,GB,"United Kingdom",51.83333000,0.58333000,Q21272241
49487,Essington,2336,ENG,England,232,GB,"United Kingdom",52.62910000,-2.05770000,Q2266985
49488,Eton,2336,ENG,England,232,GB,"United Kingdom",51.48833000,-0.60905000,Q617407
49489,"Eton Wick",2336,ENG,England,232,GB,"United Kingdom",51.49722000,-0.63437000,Q1883428
49490,Etton,2336,ENG,England,232,GB,"United Kingdom",53.87848000,-0.51314000,Q5405033
49491,Etwall,2336,ENG,England,232,GB,"United Kingdom",52.88353000,-1.60023000,Q5405104
49492,Euxton,2336,ENG,England,232,GB,"United Kingdom",53.66990000,-2.67615000,Q5414890
49494,Evenwood,2336,ENG,England,232,GB,"United Kingdom",54.62213000,-1.76133000,Q5416796
49495,Evercreech,2336,ENG,England,232,GB,"United Kingdom",51.14806000,-2.50556000,Q2081101
49496,Eversholt,2336,ENG,England,232,GB,"United Kingdom",51.98702000,-0.55983000,Q1520400
49497,Eversley,2336,ENG,England,232,GB,"United Kingdom",51.35387000,-0.88888000,Q2195735
49498,Everton,2336,ENG,England,232,GB,"United Kingdom",52.14581000,-0.24616000,Q1520276
49499,Evesham,2336,ENG,England,232,GB,"United Kingdom",52.09237000,-1.94887000,Q585963
49500,Ewell,2336,ENG,England,232,GB,"United Kingdom",51.34948000,-0.24940000,Q963723
49501,Ewhurst,2336,ENG,England,232,GB,"United Kingdom",51.15448000,-0.44344000,Q5419030
49502,"Ewyas Harold",2336,ENG,England,232,GB,"United Kingdom",51.95358000,-2.89325000,Q3399541
49503,Exeter,2336,ENG,England,232,GB,"United Kingdom",50.72360000,-3.52751000,Q134672
49504,Exhall,2336,ENG,England,232,GB,"United Kingdom",52.46464000,-1.48144000,Q1867842
49505,Exminster,2336,ENG,England,232,GB,"United Kingdom",50.68075000,-3.49706000,Q2388026
49506,Exmouth,2336,ENG,England,232,GB,"United Kingdom",50.61723000,-3.40233000,Q1007093
49507,Exning,2336,ENG,England,232,GB,"United Kingdom",52.26642000,0.37439000,Q2437858
49508,Exton,2336,ENG,England,232,GB,"United Kingdom",52.69106000,-0.63463000,Q3470604
49509,Eye,2336,ENG,England,232,GB,"United Kingdom",52.60800000,-0.19209000,Q1840716
49511,Eynsford,2336,ENG,England,232,GB,"United Kingdom",51.36765000,0.21132000,Q1877197
49512,Eynsham,2336,ENG,England,232,GB,"United Kingdom",51.78077000,-1.37454000,Q1006767
49513,Eythorne,2336,ENG,England,232,GB,"United Kingdom",51.19710000,1.26620000,Q1990804
49515,Failsworth,2336,ENG,England,232,GB,"United Kingdom",53.50484000,-2.16568000,Q2346848
49516,Fairford,2336,ENG,England,232,GB,"United Kingdom",51.70816000,-1.78128000,Q662878
49517,Fairlands,2336,ENG,England,232,GB,"United Kingdom",51.26178000,-0.62141000,Q5430512
49519,Fairlight,2336,ENG,England,232,GB,"United Kingdom",50.87802000,0.65669000,Q762602
49520,Fakenham,2336,ENG,England,232,GB,"United Kingdom",52.82996000,0.84770000,Q237650
49524,Fallowfield,2336,ENG,England,232,GB,"United Kingdom",53.43981000,-2.21572000,Q637582
49525,Falmouth,2336,ENG,England,232,GB,"United Kingdom",50.15441000,-5.07113000,Q478029
49526,Fareham,2336,ENG,England,232,GB,"United Kingdom",50.85162000,-1.17929000,Q1017943
49527,Faringdon,2336,ENG,England,232,GB,"United Kingdom",51.65644000,-1.58676000,Q663599
49528,Farnborough,2336,ENG,England,232,GB,"United Kingdom",51.29424000,-0.75565000,Q547071
49529,Farndon,2336,ENG,England,232,GB,"United Kingdom",53.05000000,-0.85000000,Q5435993
49530,Farnham,2336,ENG,England,232,GB,"United Kingdom",51.21444000,-0.80054000,Q643160
49531,"Farnham Royal",2336,ENG,England,232,GB,"United Kingdom",51.54208000,-0.61584000,Q2512771
49532,Farnsfield,2336,ENG,England,232,GB,"United Kingdom",53.10223000,-1.03320000,Q5436048
49533,Farnworth,2336,ENG,England,232,GB,"United Kingdom",53.55000000,-2.40000000,Q1397011
49535,Faversham,2336,ENG,England,232,GB,"United Kingdom",51.31480000,0.88856000,Q1000115
49536,Fazeley,2336,ENG,England,232,GB,"United Kingdom",52.61443000,-1.69850000,Q2199672
49537,Featherstone,2336,ENG,England,232,GB,"United Kingdom",52.64483000,-2.09315000,Q2108566
49538,Felixstowe,2336,ENG,England,232,GB,"United Kingdom",51.96375000,1.35110000,Q1000656
49539,Felling,2336,ENG,England,232,GB,"United Kingdom",54.95297000,-1.57152000,Q931049
49540,Feltham,2336,ENG,England,232,GB,"United Kingdom",51.44620000,-0.41388000,Q931049
49541,Felton,2336,ENG,England,232,GB,"United Kingdom",55.29768000,-1.71143000,Q2611142
49542,Feltwell,2336,ENG,England,232,GB,"United Kingdom",52.48581000,0.51945000,Q960144
49543,Fenstanton,2336,ENG,England,232,GB,"United Kingdom",52.29903000,-0.06712000,Q2801921
49547,Ferndown,2336,ENG,England,232,GB,"United Kingdom",50.80743000,-1.89975000,Q1406936
49548,"Fernhill Heath",2336,ENG,England,232,GB,"United Kingdom",52.23002000,-2.19659000,Q5445097
49549,Fernhurst,2336,ENG,England,232,GB,"United Kingdom",51.04873000,-0.71789000,Q2595699
49550,Ferrybridge,2336,ENG,England,232,GB,"United Kingdom",53.71058000,-1.27948000,Q1408162
49551,Ferryhill,2336,ENG,England,232,GB,"United Kingdom",54.68333000,-1.55000000,Q283382
49553,Filey,2336,ENG,England,232,GB,"United Kingdom",54.21000000,-0.28917000,Q82334
49554,Finchampstead,2336,ENG,England,232,GB,"United Kingdom",51.36149000,-0.85728000,Q2895759
49555,Findern,2336,ENG,England,232,GB,"United Kingdom",52.87037000,-1.54409000,Q2953519
49557,Findon,2336,ENG,England,232,GB,"United Kingdom",50.86816000,-0.40735000,Q5355915
49558,Finedon,2336,ENG,England,232,GB,"United Kingdom",52.33917000,-0.65008000,Q589867
49559,Finningley,2336,ENG,England,232,GB,"United Kingdom",53.48696000,-0.99083000,Q1618003
49561,Fishburn,2336,ENG,England,232,GB,"United Kingdom",54.68296000,-1.43631000,Q5454712
49563,Fishtoft,2336,ENG,England,232,GB,"United Kingdom",52.96095000,0.02702000,Q3189502
49564,Fitzwilliam,2336,ENG,England,232,GB,"United Kingdom",53.63288000,-1.37690000,Q5455748
49565,"Five Oak Green",2336,ENG,England,232,GB,"United Kingdom",51.18338000,0.35517000,Q5456052
49567,Flamborough,2336,ENG,England,232,GB,"United Kingdom",54.11487000,-0.12274000,Q2854886
49568,Fleckney,2336,ENG,England,232,GB,"United Kingdom",52.53497000,-1.04598000,Q5458348
49569,Fleet,2336,ENG,England,232,GB,"United Kingdom",51.28333000,-0.83333000,Q734696
49570,Fleetwood,2336,ENG,England,232,GB,"United Kingdom",53.92527000,-3.01085000,Q1012507
49571,Flexbury,2336,ENG,England,232,GB,"United Kingdom",50.83509000,-4.54499000,Q1012507
49572,Flimby,2336,ENG,England,232,GB,"United Kingdom",54.68956000,-3.52092000,Q5459390
49573,Flimwell,2336,ENG,England,232,GB,"United Kingdom",51.05502000,0.44531000,Q5459391
49575,Flitwick,2336,ENG,England,232,GB,"United Kingdom",52.00338000,-0.49472000,Q2568532
49576,Flockton,2336,ENG,England,232,GB,"United Kingdom",53.63034000,-1.63945000,Q5459967
49577,Flookburgh,2336,ENG,England,232,GB,"United Kingdom",54.17415000,-2.97214000,Q662167
49578,Flore,2336,ENG,England,232,GB,"United Kingdom",52.23647000,-1.05726000,Q603635
49581,Folkestone,2336,ENG,England,232,GB,"United Kingdom",51.08169000,1.16734000,Q375314
49582,Fontwell,2336,ENG,England,232,GB,"United Kingdom",50.85520000,-0.64831000,Q375314
49583,Ford,2336,ENG,England,232,GB,"United Kingdom",52.71693000,-2.86881000,Q3811439
49584,Fordham,2336,ENG,England,232,GB,"United Kingdom",52.31129000,0.39057000,Q660891
49585,Fordingbridge,2336,ENG,England,232,GB,"United Kingdom",50.92747000,-1.79029000,Q1234233
49586,"Forest Row",2336,ENG,England,232,GB,"United Kingdom",51.09641000,0.03262000,Q1621168
49588,Formby,2336,ENG,England,232,GB,"United Kingdom",53.55838000,-3.06999000,Q2569221
49593,Fortuneswell,2336,ENG,England,232,GB,"United Kingdom",50.56030000,-2.44243000,Q642525
49594,Foulridge,2336,ENG,England,232,GB,"United Kingdom",53.87579000,-2.16864000,Q642525
49595,Foulsham,2336,ENG,England,232,GB,"United Kingdom",52.78182000,1.01049000,Q2595321
49597,"Four Lanes",2336,ENG,England,232,GB,"United Kingdom",50.20163000,-5.24014000,Q5475280
49598,"Four Marks",2336,ENG,England,232,GB,"United Kingdom",51.10735000,-1.04945000,Q2524383
49599,Fowey,2336,ENG,England,232,GB,"United Kingdom",50.33634000,-4.63860000,Q1025790
49600,Fowlmere,2336,ENG,England,232,GB,"United Kingdom",52.09343000,0.07433000,Q1869427
49601,Framlingham,2336,ENG,England,232,GB,"United Kingdom",52.22117000,1.34205000,Q616587
49602,"Frampton on Severn",2336,ENG,England,232,GB,"United Kingdom",51.77054000,-2.36382000,Q5478047
49604,Freckleton,2336,ENG,England,232,GB,"United Kingdom",53.75433000,-2.86489000,Q2472092
49605,Fremington,2336,ENG,England,232,GB,"United Kingdom",51.06955000,-4.13660000,Q2424368
49606,Freshwater,2336,ENG,England,232,GB,"United Kingdom",50.68365000,-1.52616000,Q2428909
49608,Frimley,2336,ENG,England,232,GB,"United Kingdom",51.31667000,-0.74544000,Q1424548
49609,Frinton-on-Sea,2336,ENG,England,232,GB,"United Kingdom",51.83061000,1.24424000,Q1464942
49611,Friston,2336,ENG,England,232,GB,"United Kingdom",50.76402000,0.19930000,Q1011829
49612,Frizington,2336,ENG,England,232,GB,"United Kingdom",54.54185000,-3.49460000,Q5505085
49613,Frodsham,2336,ENG,England,232,GB,"United Kingdom",53.29485000,-2.72745000,Q2464851
49614,Frome,2336,ENG,England,232,GB,"United Kingdom",51.22834000,-2.32211000,Q1242441
49615,Fulbourn,2336,ENG,England,232,GB,"United Kingdom",52.18283000,0.22046000,Q2334717
49616,"Full Sutton",2336,ENG,England,232,GB,"United Kingdom",53.98869000,-0.86758000,Q1807857
49617,"Furnace Green",2336,ENG,England,232,GB,"United Kingdom",51.10742000,-0.16889000,Q1807857
49618,Fylde,2336,ENG,England,232,GB,"United Kingdom",53.83333000,-2.91667000,Q1807857
49620,Gainford,2336,ENG,England,232,GB,"United Kingdom",54.54718000,-1.73601000,Q2298952
49621,Gainsborough,2336,ENG,England,232,GB,"United Kingdom",53.38333000,-0.76667000,Q288082
49623,Galgate,2336,ENG,England,232,GB,"United Kingdom",53.99362000,-2.79201000,Q117813
49625,Gamlingay,2336,ENG,England,232,GB,"United Kingdom",52.15561000,-0.19303000,Q3243125
49627,Garforth,2336,ENG,England,232,GB,"United Kingdom",53.79173000,-1.38067000,Q2559795
49628,Gargrave,2336,ENG,England,232,GB,"United Kingdom",53.98353000,-2.10459000,Q2250483
49629,Garsington,2336,ENG,England,232,GB,"United Kingdom",51.71623000,-1.16129000,Q1946231
49630,Garstang,2336,ENG,England,232,GB,"United Kingdom",53.90081000,-2.77417000,Q1494566
49633,Gateshead,2336,ENG,England,232,GB,"United Kingdom",54.93333000,-1.66667000,Q929034
49634,Geddington,2336,ENG,England,232,GB,"United Kingdom",52.43757000,-0.68965000,Q3209076
49635,"Gedney Hill",2336,ENG,England,232,GB,"United Kingdom",52.68434000,-0.02008000,Q5529718
49637,Germoe,2336,ENG,England,232,GB,"United Kingdom",50.11539000,-5.37881000,Q2182858
49638,"Gerrards Cross",2336,ENG,England,232,GB,"United Kingdom",51.58610000,-0.55543000,Q1854684
49640,Gilberdyke,2336,ENG,England,232,GB,"United Kingdom",53.75297000,-0.73892000,Q2200856
49643,Gillingham,2336,ENG,England,232,GB,"United Kingdom",51.38914000,0.54863000,Q610238
49645,Girton,2336,ENG,England,232,GB,"United Kingdom",52.23333000,0.08333000,Q1527123
49649,Glapwell,2336,ENG,England,232,GB,"United Kingdom",53.18917000,-1.28334000,Q2625957
49652,Glastonbury,2336,ENG,England,232,GB,"United Kingdom",51.14745000,-2.72075000,Q210891
49653,Glazebury,2336,ENG,England,232,GB,"United Kingdom",53.47078000,-2.49823000,Q210891
49654,Glemsford,2336,ENG,England,232,GB,"United Kingdom",52.10351000,0.66912000,Q2524180
49658,Glenfield,2336,ENG,England,232,GB,"United Kingdom",52.64660000,-1.19493000,Q1983221
49661,Glinton,2336,ENG,England,232,GB,"United Kingdom",52.63921000,-0.29629000,Q943351
49662,Glossop,2336,ENG,England,232,GB,"United Kingdom",53.44325000,-1.94900000,Q383912
49663,Gloucester,2336,ENG,England,232,GB,"United Kingdom",51.86568000,-2.24310000,Q170497
49664,Gloucestershire,2336,ENG,England,232,GB,"United Kingdom",51.83333000,-2.16667000,Q21694733
49665,Glusburn,2336,ENG,England,232,GB,"United Kingdom",53.90000000,-2.00000000,Q3298774
49668,Gnosall,2336,ENG,England,232,GB,"United Kingdom",52.78558000,-2.25483000,Q2082941
49669,Gobowen,2336,ENG,England,232,GB,"United Kingdom",52.89615000,-3.03686000,Q3811414
49670,Godalming,2336,ENG,England,232,GB,"United Kingdom",51.18580000,-0.61489000,Q909146
49671,Godmanchester,2336,ENG,England,232,GB,"United Kingdom",52.31939000,-0.17509000,Q1533868
49672,Godshill,2336,ENG,England,232,GB,"United Kingdom",50.63308000,-1.25476000,Q2034581
49673,Godstone,2336,ENG,England,232,GB,"United Kingdom",51.24779000,-0.06914000,Q2954373
49674,Golborne,2336,ENG,England,232,GB,"United Kingdom",53.47693000,-2.59651000,Q1615957
49677,Goole,2336,ENG,England,232,GB,"United Kingdom",53.70324000,-0.87732000,Q1000740
49678,Goosnargh,2336,ENG,England,232,GB,"United Kingdom",53.82200000,-2.67017000,Q2514689
49679,Goostrey,2336,ENG,England,232,GB,"United Kingdom",53.22731000,-2.33919000,Q1968731
49681,Goring,2336,ENG,England,232,GB,"United Kingdom",51.52322000,-1.13342000,Q2319224
49682,Goring-by-Sea,2336,ENG,England,232,GB,"United Kingdom",50.81239000,-0.42194000,Q2379299
49683,Gorleston-on-Sea,2336,ENG,England,232,GB,"United Kingdom",52.57301000,1.73069000,Q369657
49685,Gosberton,2336,ENG,England,232,GB,"United Kingdom",52.86913000,-0.16102000,Q3494700
49686,Gosfield,2336,ENG,England,232,GB,"United Kingdom",51.93657000,0.59197000,Q2646390
49687,Gosforth,2336,ENG,England,232,GB,"United Kingdom",55.00000000,-1.61667000,Q2646390
49688,Gosport,2336,ENG,England,232,GB,"United Kingdom",50.79509000,-1.12902000,Q936263
49689,"Gossops Green",2336,ENG,England,232,GB,"United Kingdom",51.11105000,-0.21728000,Q936263
49690,Gotham,2336,ENG,England,232,GB,"United Kingdom",52.86799000,-1.20558000,Q1015255
49691,Goudhurst,2336,ENG,England,232,GB,"United Kingdom",51.11314000,0.45615000,Q2019734
49694,Goxhill,2336,ENG,England,232,GB,"United Kingdom",53.67635000,-0.33759000,Q2738948
49695,Grain,2336,ENG,England,232,GB,"United Kingdom",51.45591000,0.71126000,Q2738948
49696,"Grange Hill",2336,ENG,England,232,GB,"United Kingdom",51.61185000,0.08612000,Q2738948
49697,Grange-over-Sands,2336,ENG,England,232,GB,"United Kingdom",54.18508000,-2.92488000,Q1477163
49699,Grantham,2336,ENG,England,232,GB,"United Kingdom",52.91149000,-0.64184000,Q846683
49701,Grappenhall,2336,ENG,England,232,GB,"United Kingdom",53.37204000,-2.54675000,Q5597359
49702,Grassington,2336,ENG,England,232,GB,"United Kingdom",54.07140000,-1.99822000,Q2339724
49703,Gravesend,2336,ENG,England,232,GB,"United Kingdom",51.44206000,0.37106000,Q676689
49704,Grays,2336,ENG,England,232,GB,"United Kingdom",51.47566000,0.32521000,Q991532
49705,Greasby,2336,ENG,England,232,GB,"United Kingdom",53.37300000,-3.12330000,Q991532
49706,"Great Amwell",2336,ENG,England,232,GB,"United Kingdom",51.79014000,-0.01669000,Q16550296
49707,"Great Ayton",2336,ENG,England,232,GB,"United Kingdom",54.49148000,-1.13623000,Q1616712
49708,"Great Bardfield",2336,ENG,England,232,GB,"United Kingdom",51.94813000,0.43645000,Q2236374
49709,"Great Barford",2336,ENG,England,232,GB,"United Kingdom",52.15791000,-0.35235000,Q1521199
49710,"Great Barton",2336,ENG,England,232,GB,"United Kingdom",52.27257000,0.76679000,Q5598721
49711,"Great Bedwyn",2336,ENG,England,232,GB,"United Kingdom",51.37950000,-1.60151000,Q995623
49712,"Great Bentley",2336,ENG,England,232,GB,"United Kingdom",51.85333000,1.06379000,Q2351369
49713,"Great Bookham",2336,ENG,England,232,GB,"United Kingdom",51.27916000,-0.37423000,Q948813
49714,"Great Chesterford",2336,ENG,England,232,GB,"United Kingdom",52.06431000,0.19720000,Q1020030
49715,"Great Dunmow",2336,ENG,England,232,GB,"United Kingdom",51.87230000,0.36255000,Q2560256
49716,"Great Eccleston",2336,ENG,England,232,GB,"United Kingdom",53.85315000,-2.87026000,Q1868281
49717,"Great Glen",2336,ENG,England,232,GB,"United Kingdom",52.57548000,-1.03490000,Q2645192
49718,"Great Gonerby",2336,ENG,England,232,GB,"United Kingdom",52.93507000,-0.66685000,Q5599264
49719,"Great Gransden",2336,ENG,England,232,GB,"United Kingdom",52.18546000,-0.14574000,Q1862850
49720,"Great Hanwood",2336,ENG,England,232,GB,"United Kingdom",52.68333000,-2.81667000,Q3812629
49721,"Great Harwood",2336,ENG,England,232,GB,"United Kingdom",53.78512000,-2.40865000,Q2305059
49722,"Great Haywood",2336,ENG,England,232,GB,"United Kingdom",52.80785000,-2.00024000,Q2305059
49723,"Great Horkesley",2336,ENG,England,232,GB,"United Kingdom",51.93821000,0.87551000,Q2744855
49724,"Great Horwood",2336,ENG,England,232,GB,"United Kingdom",51.97351000,-0.88088000,Q2641444
49725,"Great Houghton",2336,ENG,England,232,GB,"United Kingdom",53.55352000,-1.34952000,Q1617097
49726,"Great Leighs",2336,ENG,England,232,GB,"United Kingdom",51.82761000,0.50640000,Q2151811
49727,"Great Malvern",2336,ENG,England,232,GB,"United Kingdom",52.11161000,-2.32515000,Q1004173
49728,"Great Marton",2336,ENG,England,232,GB,"United Kingdom",53.81185000,-3.02261000,Q1004173
49729,"Great Missenden",2336,ENG,England,232,GB,"United Kingdom",51.70419000,-0.70797000,Q1817504
49730,"Great Paxton",2336,ENG,England,232,GB,"United Kingdom",52.26057000,-0.22818000,Q1825533
49731,"Great Sankey",2336,ENG,England,232,GB,"United Kingdom",53.39234000,-2.63994000,Q2597228
49732,"Great Torrington",2336,ENG,England,232,GB,"United Kingdom",50.95309000,-4.14401000,Q1242349
49733,"Great Wakering",2336,ENG,England,232,GB,"United Kingdom",51.55242000,0.80380000,Q2451497
49734,"Great Waldingfield",2336,ENG,England,232,GB,"United Kingdom",52.05545000,0.77436000,Q1544390
49735,"Great Wyrley",2336,ENG,England,232,GB,"United Kingdom",52.66277000,-2.01111000,Q3497842
49736,"Great Yarmouth",2336,ENG,England,232,GB,"United Kingdom",52.60831000,1.73052000,Q237253
49737,"Great Yeldham",2336,ENG,England,232,GB,"United Kingdom",52.01347000,0.56540000,Q2648635
49738,"Greater London",2336,ENG,England,232,GB,"United Kingdom",51.50000000,-0.16667000,Q23306
49739,Greatham,2336,ENG,England,232,GB,"United Kingdom",54.64183000,-1.23806000,Q23306
49741,Greenfield,2336,ENG,England,232,GB,"United Kingdom",52.00278000,-0.46605000,Q1520620
49742,Greenford,2336,ENG,England,232,GB,"United Kingdom",51.52866000,-0.35508000,Q83475
49744,Greenhill,2336,ENG,England,232,GB,"United Kingdom",51.58342000,-0.33860000,Q83475
49745,Greenhithe,2336,ENG,England,232,GB,"United Kingdom",51.45026000,0.28539000,Q3028239
49748,Greetham,2336,ENG,England,232,GB,"United Kingdom",52.72059000,-0.63068000,Q2382400
49752,Grimethorpe,2336,ENG,England,232,GB,"United Kingdom",53.57650000,-1.37688000,Q1619619
49753,Grimsby,2336,ENG,England,232,GB,"United Kingdom",53.56539000,-0.07553000,Q179406
49754,Grimston,2336,ENG,England,232,GB,"United Kingdom",52.77312000,0.54846000,Q2126573
49755,Griston,2336,ENG,England,232,GB,"United Kingdom",52.55720000,0.86436000,Q615956
49757,Groombridge,2336,ENG,England,232,GB,"United Kingdom",51.11543000,0.18295000,Q1547379
49758,Grove,2336,ENG,England,232,GB,"United Kingdom",51.60954000,-1.42187000,Q991626
49760,Grundisburgh,2336,ENG,England,232,GB,"United Kingdom",52.11222000,1.24618000,Q2027680
49761,"Guilden Sutton",2336,ENG,England,232,GB,"United Kingdom",53.20809000,-2.82984000,Q1820193
49762,Guildford,2336,ENG,England,232,GB,"United Kingdom",51.23536000,-0.57427000,Q213465
49764,Guisborough,2336,ENG,England,232,GB,"United Kingdom",54.53478000,-1.05606000,Q952490
49765,Guiseley,2336,ENG,England,232,GB,"United Kingdom",53.87561000,-1.71232000,Q2342139
49767,Gunness,2336,ENG,England,232,GB,"United Kingdom",53.59080000,-0.72834000,Q5619241
49768,Gunnislake,2336,ENG,England,232,GB,"United Kingdom",50.52441000,-4.21333000,Q5619265
49770,Hackleton,2336,ENG,England,232,GB,"United Kingdom",52.18798000,-0.82312000,Q2108437
49771,Haddenham,2336,ENG,England,232,GB,"United Kingdom",51.77326000,-0.92628000,Q2109493
49773,Hadleigh,2336,ENG,England,232,GB,"United Kingdom",51.55269000,0.60983000,Q2346831
49774,Hadley,2336,ENG,England,232,GB,"United Kingdom",52.70000000,-2.48333000,Q5637957
49775,"Hadley Wood",2336,ENG,England,232,GB,"United Kingdom",51.66669000,-0.16981000,Q5637957
49776,Hadlow,2336,ENG,England,232,GB,"United Kingdom",51.22417000,0.33914000,Q2189798
49777,Hadston,2336,ENG,England,232,GB,"United Kingdom",55.29428000,-1.60392000,Q5638103
49778,Hagley,2336,ENG,England,232,GB,"United Kingdom",52.42620000,-2.12819000,Q1009859
49779,Hailsham,2336,ENG,England,232,GB,"United Kingdom",50.86220000,0.25775000,Q1017052
49780,Hainault,2336,ENG,England,232,GB,"United Kingdom",51.60836000,0.10716000,Q1017052
49781,Hale,2336,ENG,England,232,GB,"United Kingdom",53.37831000,-2.33271000,Q5641345
49782,Halesowen,2336,ENG,England,232,GB,"United Kingdom",52.44859000,-2.04938000,Q612260
49783,Halesworth,2336,ENG,England,232,GB,"United Kingdom",52.34640000,1.50290000,Q1570884
49784,Halifax,2336,ENG,England,232,GB,"United Kingdom",53.71667000,-1.85000000,Q826561
49787,Halling,2336,ENG,England,232,GB,"United Kingdom",51.35142000,0.44520000,Q2227727
49788,Hallow,2336,ENG,England,232,GB,"United Kingdom",52.22344000,-2.25468000,Q2212319
49789,Halstead,2336,ENG,England,232,GB,"United Kingdom",51.94506000,0.63927000,Q2282928
49790,Halton,2336,ENG,England,232,GB,"United Kingdom",53.31667000,-2.70000000,Q3817101
49791,Haltwhistle,2336,ENG,England,232,GB,"United Kingdom",54.97101000,-2.45682000,Q748591
49792,Hamble-le-Rice,2336,ENG,England,232,GB,"United Kingdom",50.85966000,-1.32432000,Q748591
49793,Hambleton,2336,ENG,England,232,GB,"United Kingdom",53.76667000,-1.16667000,Q5644231
49794,"Hameldon Hill",2336,ENG,England,232,GB,"United Kingdom",53.75570000,-2.29190000,Q5644231
49796,Hampshire,2336,ENG,England,232,GB,"United Kingdom",51.00000000,-1.25000000,Q21694653
49797,Hampton,2336,ENG,England,232,GB,"United Kingdom",51.41334000,-0.36701000,Q766353
49798,"Hampton in Arden",2336,ENG,England,232,GB,"United Kingdom",52.42540000,-1.70271000,Q1612062
49799,Handcross,2336,ENG,England,232,GB,"United Kingdom",51.05383000,-0.20076000,Q5647343
49800,Hannington,2336,ENG,England,232,GB,"United Kingdom",51.63333000,-1.75000000,Q2459277
49801,Hanslope,2336,ENG,England,232,GB,"United Kingdom",52.11425000,-0.82672000,Q1770948
49802,Hapton,2336,ENG,England,232,GB,"United Kingdom",53.78333000,-2.31667000,Q2805266
49803,Harbury,2336,ENG,England,232,GB,"United Kingdom",52.23537000,-1.45706000,Q1873686
49804,Hardingstone,2336,ENG,England,232,GB,"United Kingdom",52.21358000,-0.88582000,Q2459383
49805,"Hardwick Village",2336,ENG,England,232,GB,"United Kingdom",53.27372000,-1.04320000,Q2459383
49806,Harefield,2336,ENG,England,232,GB,"United Kingdom",51.60333000,-0.48546000,Q2243312
49808,Harleston,2336,ENG,England,232,GB,"United Kingdom",52.40302000,1.29664000,Q2933556
49809,Harlington,2336,ENG,England,232,GB,"United Kingdom",51.96288000,-0.49241000,Q975042
49810,Harlow,2336,ENG,England,232,GB,"United Kingdom",51.77655000,0.11158000,Q852729
49811,"Harold Wood",2336,ENG,England,232,GB,"United Kingdom",51.59462000,0.23294000,Q852729
49812,Harpenden,2336,ENG,England,232,GB,"United Kingdom",51.81684000,-0.35706000,Q19785
49813,Harpole,2336,ENG,England,232,GB,"United Kingdom",52.24246000,-0.98937000,Q2041668
49814,Harrietsham,2336,ENG,England,232,GB,"United Kingdom",51.24252000,0.67060000,Q607701
49815,Harringay,2336,ENG,England,232,GB,"United Kingdom",51.58240000,-0.09956000,Q607701
49816,Harrogate,2336,ENG,England,232,GB,"United Kingdom",53.99078000,-1.53730000,Q215829
49817,Harrold,2336,ENG,England,232,GB,"United Kingdom",52.20127000,-0.61038000,Q1520103
49818,"Harrow on the Hill",2336,ENG,England,232,GB,"United Kingdom",51.57142000,-0.33371000,Q1520103
49819,Harston,2336,ENG,England,232,GB,"United Kingdom",52.13691000,0.07999000,Q2337845
49820,Harthill,2336,ENG,England,232,GB,"United Kingdom",53.31667000,-1.26667000,Q588684
49822,Hartlebury,2336,ENG,England,232,GB,"United Kingdom",52.33333000,-2.23333000,Q2256121
49823,Hartlepool,2336,ENG,England,232,GB,"United Kingdom",54.66667000,-1.25000000,Q2594690
49824,Hartley,2336,ENG,England,232,GB,"United Kingdom",51.38673000,0.30367000,Q3243365
49825,"Hartley Wintney",2336,ENG,England,232,GB,"United Kingdom",51.30379000,-0.90019000,Q2174493
49826,Hartshill,2336,ENG,England,232,GB,"United Kingdom",52.54831000,-1.52221000,Q5675266
49827,Hartwell,2336,ENG,England,232,GB,"United Kingdom",52.14616000,-0.85376000,Q5675394
49828,Harvington,2336,ENG,England,232,GB,"United Kingdom",52.14095000,-1.92313000,Q3417903
49829,Harwell,2336,ENG,England,232,GB,"United Kingdom",51.59947000,-1.29175000,Q986049
49830,Harwich,2336,ENG,England,232,GB,"United Kingdom",51.94194000,1.28437000,Q990616
49831,Haslemere,2336,ENG,England,232,GB,"United Kingdom",51.09015000,-0.70785000,Q2449644
49832,Haslingden,2336,ENG,England,232,GB,"United Kingdom",53.70326000,-2.32382000,Q2361633
49833,Haslingfield,2336,ENG,England,232,GB,"United Kingdom",52.15016000,0.05579000,Q2041191
49834,Hassocks,2336,ENG,England,232,GB,"United Kingdom",50.92814000,-0.16617000,Q1869251
49835,Hastings,2336,ENG,England,232,GB,"United Kingdom",50.85519000,0.57292000,Q29245
49836,Haswell,2336,ENG,England,232,GB,"United Kingdom",54.78333000,-1.41667000,Q2787439
49837,Hatfield,2336,ENG,England,232,GB,"United Kingdom",51.76338000,-0.22419000,Q19788
49838,"Hatfield Heath",2336,ENG,England,232,GB,"United Kingdom",51.81233000,0.21243000,Q3242683
49839,"Hatfield Peverel",2336,ENG,England,232,GB,"United Kingdom",51.77591000,0.59489000,Q2348519
49840,Hatherleigh,2336,ENG,England,232,GB,"United Kingdom",50.82144000,-4.07228000,Q523265
49841,Hathern,2336,ENG,England,232,GB,"United Kingdom",52.79548000,-1.25644000,Q5681495
49842,Hathersage,2336,ENG,England,232,GB,"United Kingdom",53.33030000,-1.65398000,Q667364
49843,Hatton,2336,ENG,England,232,GB,"United Kingdom",52.30007000,-1.63260000,Q2218712
49844,Haughley,2336,ENG,England,232,GB,"United Kingdom",52.21907000,0.96800000,Q2678579
49845,"Haughton Green",2336,ENG,England,232,GB,"United Kingdom",53.44118000,-2.09827000,Q5682480
49846,Havant,2336,ENG,England,232,GB,"United Kingdom",50.85670000,-0.98559000,Q1234712
49848,Haverhill,2336,ENG,England,232,GB,"United Kingdom",52.08226000,0.43891000,Q262092
49849,Haverigg,2336,ENG,England,232,GB,"United Kingdom",54.19973000,-3.29263000,Q785358
49852,Hawkhurst,2336,ENG,England,232,GB,"United Kingdom",51.04790000,0.51095000,Q2744669
49853,Hawkinge,2336,ENG,England,232,GB,"United Kingdom",51.11276000,1.16176000,Q2482605
49854,Haworth,2336,ENG,England,232,GB,"United Kingdom",53.82905000,-1.94827000,Q384570
49855,Hawthorn,2336,ENG,England,232,GB,"United Kingdom",54.80000000,-1.35000000,Q2234580
49856,Haxby,2336,ENG,England,232,GB,"United Kingdom",54.01422000,-1.07121000,Q2244488
49857,Haxey,2336,ENG,England,232,GB,"United Kingdom",53.48937000,-0.84020000,Q2797842
49859,Haydock,2336,ENG,England,232,GB,"United Kingdom",53.46723000,-2.68166000,Q3783795
49860,"Haydon Bridge",2336,ENG,England,232,GB,"United Kingdom",54.97486000,-2.24680000,Q3783796
49861,Hayes,2336,ENG,England,232,GB,"United Kingdom",51.51579000,-0.42340000,Q678138
49862,Hayfield,2336,ENG,England,232,GB,"United Kingdom",53.37893000,-1.94544000,Q2485852
49863,Hayle,2336,ENG,England,232,GB,"United Kingdom",50.18392000,-5.42137000,Q1010221
49864,"Hayling Island",2336,ENG,England,232,GB,"United Kingdom",50.78380000,-0.96869000,Q41491293
49865,Haynes,2336,ENG,England,232,GB,"United Kingdom",52.06646000,-0.39946000,Q1520583
49866,Hayton,2336,ENG,England,232,GB,"United Kingdom",53.90000000,-0.75000000,Q152145
49867,"Haywards Heath",2336,ENG,England,232,GB,"United Kingdom",50.99769000,-0.10313000,Q920646
49868,"Hazel Grove",2336,ENG,England,232,GB,"United Kingdom",53.38333000,-2.11667000,Q18636
49869,Hazlerigg,2336,ENG,England,232,GB,"United Kingdom",55.04135000,-1.63912000,Q2862048
49870,Heacham,2336,ENG,England,232,GB,"United Kingdom",52.90782000,0.49387000,Q2199636
49872,Headcorn,2336,ENG,England,232,GB,"United Kingdom",51.16966000,0.62433000,Q743020
49873,Heage,2336,ENG,England,232,GB,"United Kingdom",53.05050000,-1.44688000,Q5690152
49874,Healing,2336,ENG,England,232,GB,"United Kingdom",53.58101000,-0.16202000,Q5690269
49875,Heanor,2336,ENG,England,232,GB,"United Kingdom",53.01372000,-1.35383000,Q1981105
49876,"Heath and Reach",2336,ENG,England,232,GB,"United Kingdom",51.94517000,-0.65697000,Q1520045
49877,Heathfield,2336,ENG,England,232,GB,"United Kingdom",50.96718000,0.25612000,Q2258479
49878,"Heaton Chapel",2336,ENG,England,232,GB,"United Kingdom",53.43015000,-2.17538000,Q5694415
49879,Heavitree,2336,ENG,England,232,GB,"United Kingdom",50.72044000,-3.49646000,Q5694415
49880,Hebburn,2336,ENG,England,232,GB,"United Kingdom",54.97302000,-1.51546000,Q984308
49881,"Hebden Bridge",2336,ENG,England,232,GB,"United Kingdom",53.74093000,-2.01337000,Q1023948
49882,Heckington,2336,ENG,England,232,GB,"United Kingdom",52.98183000,-0.29903000,Q751602
49883,Heckmondwike,2336,ENG,England,232,GB,"United Kingdom",53.70646000,-1.67747000,Q768654
49884,"Heddon on the Wall",2336,ENG,England,232,GB,"United Kingdom",54.99692000,-1.79386000,Q2355898
49885,"Hedge End",2336,ENG,England,232,GB,"United Kingdom",50.91234000,-1.30076000,Q2972103
49886,Hedon,2336,ENG,England,232,GB,"United Kingdom",53.73962000,-0.19655000,Q2569160
49887,Heighington,2336,ENG,England,232,GB,"United Kingdom",53.21241000,-0.45902000,Q2603003
49889,Hellaby,2336,ENG,England,232,GB,"United Kingdom",53.42257000,-1.24125000,Q9287570
49890,Hellifield,2336,ENG,England,232,GB,"United Kingdom",54.00486000,-2.22302000,Q600342
49891,Helmsley,2336,ENG,England,232,GB,"United Kingdom",54.24577000,-1.05683000,Q2073801
49892,Helpston,2336,ENG,England,232,GB,"United Kingdom",52.63233000,-0.34676000,Q2073801
49893,Helsby,2336,ENG,England,232,GB,"United Kingdom",53.27396000,-2.76905000,Q2073045
49894,Helston,2336,ENG,England,232,GB,"United Kingdom",50.10319000,-5.27045000,Q1012535
49895,"Hemel Hempstead",2336,ENG,England,232,GB,"United Kingdom",51.75368000,-0.44975000,Q3532
49896,Hemingbrough,2336,ENG,England,232,GB,"United Kingdom",53.76863000,-0.97673000,Q2394869
49897,"Hemingford Grey",2336,ENG,England,232,GB,"United Kingdom",52.31756000,-0.10029000,Q980052
49898,Hemsby,2336,ENG,England,232,GB,"United Kingdom",52.69714000,1.69181000,Q2670662
49899,Hemsworth,2336,ENG,England,232,GB,"United Kingdom",53.61267000,-1.35424000,Q2556975
49900,Hemyock,2336,ENG,England,232,GB,"United Kingdom",50.91234000,-3.22807000,Q2023731
49901,Henfield,2336,ENG,England,232,GB,"United Kingdom",50.92995000,-0.27071000,Q847159
49903,"Henley in Arden",2336,ENG,England,232,GB,"United Kingdom",52.29032000,-1.77807000,Q2734845
49904,Henley-on-Thames,2336,ENG,England,232,GB,"United Kingdom",51.53333000,-0.90000000,Q990253
49906,Henlow,2336,ENG,England,232,GB,"United Kingdom",52.03021000,-0.28599000,Q1520180
49907,Henstridge,2336,ENG,England,232,GB,"United Kingdom",50.97717000,-2.39500000,Q2846186
49908,Hereford,2336,ENG,England,232,GB,"United Kingdom",52.05684000,-2.71482000,Q204720
49909,Herefordshire,2336,ENG,England,232,GB,"United Kingdom",52.08333000,-2.75000000,Q23129
49910,Hermitage,2336,ENG,England,232,GB,"United Kingdom",51.45540000,-1.26823000,Q1813871
49911,"Herne Bay",2336,ENG,England,232,GB,"United Kingdom",51.37300000,1.12857000,Q929286
49912,Herstmonceux,2336,ENG,England,232,GB,"United Kingdom",50.88958000,0.32290000,Q1016813
49913,Hertford,2336,ENG,England,232,GB,"United Kingdom",51.79588000,-0.07854000,Q9681
49914,Hertfordshire,2336,ENG,England,232,GB,"United Kingdom",51.83333000,-0.25000000,Q3410
49915,Heswall,2336,ENG,England,232,GB,"United Kingdom",53.32733000,-3.09648000,Q674669
49916,Hethersett,2336,ENG,England,232,GB,"United Kingdom",52.59761000,1.17359000,Q181821
49917,Hetton-Le-Hole,2336,ENG,England,232,GB,"United Kingdom",54.81667000,-1.45000000,Q691566
49918,Hexham,2336,ENG,England,232,GB,"United Kingdom",54.96986000,-2.10400000,Q947400
49919,Heysham,2336,ENG,England,232,GB,"United Kingdom",54.04367000,-2.89322000,Q1617039
49920,Heywood,2336,ENG,England,232,GB,"United Kingdom",53.59245000,-2.21941000,Q1013970
49921,Hibaldstow,2336,ENG,England,232,GB,"United Kingdom",53.51133000,-0.52082000,Q9291954
49922,"High Barnet",2336,ENG,England,232,GB,"United Kingdom",51.65621000,-0.20768000,Q9291954
49923,"High Bentham",2336,ENG,England,232,GB,"United Kingdom",54.11823000,-2.51199000,Q26774476
49925,"High Etherley",2336,ENG,England,232,GB,"United Kingdom",54.65391000,-1.74363000,Q965244
49926,"High Halden",2336,ENG,England,232,GB,"United Kingdom",51.10331000,0.71394000,Q2451996
49927,"High Halstow",2336,ENG,England,232,GB,"United Kingdom",51.44775000,0.55558000,Q2451996
49928,"High Legh",2336,ENG,England,232,GB,"United Kingdom",53.35139000,-2.45380000,Q2673596
49929,"High Ongar",2336,ENG,England,232,GB,"United Kingdom",51.70953000,0.26221000,Q2624060
49930,"High Peak",2336,ENG,England,232,GB,"United Kingdom",53.36797000,-1.84536000,Q2624060
49932,"High Wycombe",2336,ENG,England,232,GB,"United Kingdom",51.62907000,-0.74934000,Q64116
49933,"Higham Ferrers",2336,ENG,England,232,GB,"United Kingdom",52.30596000,-0.59342000,Q2324875
49934,Highbridge,2336,ENG,England,232,GB,"United Kingdom",51.21667000,-2.98333000,Q684317
49935,Highclere,2336,ENG,England,232,GB,"United Kingdom",51.33860000,-1.37569000,Q5757909
49937,Highley,2336,ENG,England,232,GB,"United Kingdom",52.44866000,-2.38251000,Q2104775
49938,Hightown,2336,ENG,England,232,GB,"United Kingdom",53.52452000,-3.06192000,Q2104775
49939,Highworth,2336,ENG,England,232,GB,"United Kingdom",51.63051000,-1.71100000,Q684452
49942,Hilton,2336,ENG,England,232,GB,"United Kingdom",52.27908000,-0.11222000,Q2713484
49943,"Hinchley Wood",2336,ENG,England,232,GB,"United Kingdom",51.37461000,-0.33838000,Q5765741
49944,Hinckley,2336,ENG,England,232,GB,"United Kingdom",52.53890000,-1.37613000,Q1020362
49945,Hindhead,2336,ENG,England,232,GB,"United Kingdom",51.11381000,-0.73351000,Q3034872
49946,Hindley,2336,ENG,England,232,GB,"United Kingdom",53.53333000,-2.58333000,Q3785707
49947,Hindon,2336,ENG,England,232,GB,"United Kingdom",51.09222000,-2.12583000,Q4354011
49948,Hingham,2336,ENG,England,232,GB,"United Kingdom",52.57969000,0.98422000,Q2568918
49949,Hinton,2336,ENG,England,232,GB,"United Kingdom",52.16798000,-1.21837000,Q5767637
49951,Histon,2336,ENG,England,232,GB,"United Kingdom",52.25166000,0.10643000,Q20023058
49952,Hitchin,2336,ENG,England,232,GB,"United Kingdom",51.94924000,-0.28496000,Q19798
49953,Hockley,2336,ENG,England,232,GB,"United Kingdom",52.50000000,-1.91667000,Q19798
49954,"Hockley Heath",2336,ENG,England,232,GB,"United Kingdom",52.35294000,-1.77816000,Q2407843
49955,Hockliffe,2336,ENG,England,232,GB,"United Kingdom",51.93109000,-0.58652000,Q1522063
49956,"Hockwold cum Wilton",2336,ENG,England,232,GB,"United Kingdom",52.46380000,0.54614000,Q2607469
49957,Hoddesdon,2336,ENG,England,232,GB,"United Kingdom",51.76148000,-0.01144000,Q1477061
49958,Holbeach,2336,ENG,England,232,GB,"United Kingdom",52.80401000,0.01442000,Q1612253
49959,Holbeck,2336,ENG,England,232,GB,"United Kingdom",53.78359000,-1.56791000,Q1612253
49960,Holbrook,2336,ENG,England,232,GB,"United Kingdom",51.98340000,1.15854000,Q2221986
49961,Hollingworth,2336,ENG,England,232,GB,"United Kingdom",53.46300000,-1.99100000,Q5881488
49962,Holloway,2336,ENG,England,232,GB,"United Kingdom",51.55237000,-0.12497000,Q5881488
49963,Hollym,2336,ENG,England,232,GB,"United Kingdom",53.70402000,0.04008000,Q2477744
49964,"Holmes Chapel",2336,ENG,England,232,GB,"United Kingdom",53.20140000,-2.35742000,Q1010169
49965,Holmfirth,2336,ENG,England,232,GB,"United Kingdom",53.56968000,-1.78777000,Q2469027
49966,Holmwood,2336,ENG,England,232,GB,"United Kingdom",51.18049000,-0.32176000,Q2469027
49967,Holsworthy,2336,ENG,England,232,GB,"United Kingdom",50.81196000,-4.35383000,Q1234271
49968,Holt,2336,ENG,England,232,GB,"United Kingdom",51.35556000,-2.19722000,Q2135644
49969,Holtby,2336,ENG,England,232,GB,"United Kingdom",53.97876000,-0.97255000,Q2174222
49970,"Holton le Clay",2336,ENG,England,232,GB,"United Kingdom",53.50520000,-0.06300000,Q5884715
49974,"Holywell Green",2336,ENG,England,232,GB,"United Kingdom",53.67406000,-1.86682000,Q2550393
49976,Honeybourne,2336,ENG,England,232,GB,"United Kingdom",52.09513000,-1.83129000,Q303559
49977,Honiton,2336,ENG,England,232,GB,"United Kingdom",50.79960000,-3.18899000,Q647123
49978,Hoo,2336,ENG,England,232,GB,"United Kingdom",51.42050000,0.56300000,Q647123
49979,Hook,2336,ENG,England,232,GB,"United Kingdom",51.36803000,-0.30650000,Q15224991
49981,"Hook Norton",2336,ENG,England,232,GB,"United Kingdom",51.99564000,-1.48277000,Q2552583
49982,Hoole,2336,ENG,England,232,GB,"United Kingdom",53.19980000,-2.87689000,Q5898181
49984,"Hope Valley",2336,ENG,England,232,GB,"United Kingdom",53.34819000,-1.74485000,Q1985810
49986,"Hopton on Sea",2336,ENG,England,232,GB,"United Kingdom",52.53333000,1.73333000,Q2980788
49987,Horam,2336,ENG,England,232,GB,"United Kingdom",50.93523000,0.24436000,Q1979516
49988,Horbury,2336,ENG,England,232,GB,"United Kingdom",53.66051000,-1.56014000,Q5902902
49989,Horley,2336,ENG,England,232,GB,"United Kingdom",51.17423000,-0.15919000,Q2280939
49990,Horncastle,2336,ENG,England,232,GB,"United Kingdom",53.20775000,-0.11720000,Q1628403
49991,Hornchurch,2336,ENG,England,232,GB,"United Kingdom",51.55685000,0.21664000,Q1656021
49992,"Horndon on the Hill",2336,ENG,England,232,GB,"United Kingdom",51.52358000,0.40491000,Q2205748
49993,Horning,2336,ENG,England,232,GB,"United Kingdom",52.70460000,1.46294000,Q957808
49994,Hornsea,2336,ENG,England,232,GB,"United Kingdom",53.91041000,-0.16806000,Q1263457
49995,Horrabridge,2336,ENG,England,232,GB,"United Kingdom",50.50843000,-4.10042000,Q671961
49996,Horsford,2336,ENG,England,232,GB,"United Kingdom",52.70153000,1.24015000,Q2417150
49997,Horsforth,2336,ENG,England,232,GB,"United Kingdom",53.84260000,-1.63754000,Q747807
49998,Horsham,2336,ENG,England,232,GB,"United Kingdom",51.06314000,-0.32757000,Q177544
49999,Horsmonden,2336,ENG,England,232,GB,"United Kingdom",51.13908000,0.42881000,Q4874056
50000,"Horsted Keynes",2336,ENG,England,232,GB,"United Kingdom",51.03659000,-0.02798000,Q2509369
50001,Horton,2336,ENG,England,232,GB,"United Kingdom",51.47315000,-0.54245000,Q2738696
50002,"Horton Kirby",2336,ENG,England,232,GB,"United Kingdom",51.39481000,0.24483000,Q9293945
50003,Horwich,2336,ENG,England,232,GB,"United Kingdom",53.60126000,-2.54975000,Q1630298
50004,Hotham,2336,ENG,England,232,GB,"United Kingdom",53.79583000,-0.64253000,Q2254553
50005,Houghton,2336,ENG,England,232,GB,"United Kingdom",52.33282000,-0.12068000,Q5912898
50006,"Houghton Conquest",2336,ENG,England,232,GB,"United Kingdom",52.06178000,-0.47756000,Q1518934
50007,"Houghton on the Hill",2336,ENG,England,232,GB,"United Kingdom",52.62663000,-0.99546000,Q5913028
50008,Houghton-Le-Spring,2336,ENG,England,232,GB,"United Kingdom",54.84034000,-1.46427000,Q2326854
50009,Hounslow,2336,ENG,England,232,GB,"United Kingdom",51.46839000,-0.36092000,Q2022317
50011,Hove,2336,ENG,England,232,GB,"United Kingdom",50.83088000,-0.16720000,Q989616
50012,Hoveton,2336,ENG,England,232,GB,"United Kingdom",52.71490000,1.41054000,Q2548710
50013,Howden,2336,ENG,England,232,GB,"United Kingdom",53.74630000,-0.86994000,Q1365059
50015,Hoylake,2336,ENG,England,232,GB,"United Kingdom",53.39046000,-3.18066000,Q2024069
50016,"Hoyland Nether",2336,ENG,England,232,GB,"United Kingdom",53.50000000,-1.45000000,Q3787287
50017,Hucknall,2336,ENG,England,232,GB,"United Kingdom",53.03333000,-1.20000000,Q1633759
50018,Huddersfield,2336,ENG,England,232,GB,"United Kingdom",53.64904000,-1.78416000,Q201812
50019,"Hugh Town",2336,ENG,England,232,GB,"United Kingdom",49.91447000,-6.31145000,Q917474
50020,Hulme,2336,ENG,England,232,GB,"United Kingdom",53.46572000,-2.24885000,Q3051137
50021,Humberston,2336,ENG,England,232,GB,"United Kingdom",53.53036000,-0.02465000,Q4357780
50023,Hungerford,2336,ENG,England,232,GB,"United Kingdom",51.41513000,-1.51556000,Q1637841
50024,Hunmanby,2336,ENG,England,232,GB,"United Kingdom",54.17957000,-0.32007000,Q2003577
50025,Hunstanton,2336,ENG,England,232,GB,"United Kingdom",52.95000000,0.50000000,Q617188
50026,Huntingdon,2336,ENG,England,232,GB,"United Kingdom",52.33049000,-0.18651000,Q685640
50027,Huntley,2336,ENG,England,232,GB,"United Kingdom",51.87172000,-2.40137000,Q5945609
50029,Huntspill,2336,ENG,England,232,GB,"United Kingdom",51.20562000,-2.98735000,Q2655982
50030,Hunwick,2336,ENG,England,232,GB,"United Kingdom",54.68791000,-1.70539000,Q5945974
50031,Hurst,2336,ENG,England,232,GB,"United Kingdom",51.45791000,-0.85196000,Q3158262
50032,Hurstpierpoint,2336,ENG,England,232,GB,"United Kingdom",50.93388000,-0.18007000,Q5948671
50033,"Husbands Bosworth",2336,ENG,England,232,GB,"United Kingdom",52.45232000,-1.05557000,Q1612310
50034,"Husborne Crawley",2336,ENG,England,232,GB,"United Kingdom",52.01637000,-0.61056000,Q1520285
50035,Huyton,2336,ENG,England,232,GB,"United Kingdom",53.41150000,-2.83935000,Q1639484
50036,Hyde,2336,ENG,England,232,GB,"United Kingdom",53.45131000,-2.07943000,Q2080165
50037,"Hyde Heath",2336,ENG,England,232,GB,"United Kingdom",51.69336000,-0.65437000,Q2080165
50038,Hythe,2336,ENG,England,232,GB,"United Kingdom",50.86004000,-1.40162000,Q5962455
50039,Ibstock,2336,ENG,England,232,GB,"United Kingdom",52.68554000,-1.39965000,Q5962455
50040,Ilchester,2336,ENG,England,232,GB,"United Kingdom",51.00587000,-2.67981000,Q1244536
50041,Ilfracombe,2336,ENG,England,232,GB,"United Kingdom",51.20930000,-4.11344000,Q1018429
50042,Ilkeston,2336,ENG,England,232,GB,"United Kingdom",52.97055000,-1.30951000,Q2061067
50043,Ilkley,2336,ENG,England,232,GB,"United Kingdom",53.92449000,-1.82326000,Q1020951
50044,Ilminster,2336,ENG,England,232,GB,"United Kingdom",50.92684000,-2.91009000,Q1247779
50045,Immingham,2336,ENG,England,232,GB,"United Kingdom",53.61239000,-0.22219000,Q1013574
50046,"Ince Blundell",2336,ENG,England,232,GB,"United Kingdom",53.52429000,-3.02733000,Q1013574
50047,Ince-in-Makerfield,2336,ENG,England,232,GB,"United Kingdom",53.53333000,-2.61667000,Q3797591
50050,Ingatestone,2336,ENG,England,232,GB,"United Kingdom",51.67027000,0.38359000,Q1021898
50051,"Ingleby Greenhow",2336,ENG,England,232,GB,"United Kingdom",54.44983000,-1.10687000,Q2736813
50052,Ingleton,2336,ENG,England,232,GB,"United Kingdom",54.15392000,-2.46849000,Q985313
50053,Ingoldmells,2336,ENG,England,232,GB,"United Kingdom",53.19414000,0.33358000,Q6032919
50054,Ingrave,2336,ENG,England,232,GB,"United Kingdom",51.60416000,0.34058000,Q2062531
50055,Inkberrow,2336,ENG,England,232,GB,"United Kingdom",52.21284000,-1.98093000,Q2715452
50066,Ipplepen,2336,ENG,England,232,GB,"United Kingdom",50.48919000,-3.63900000,Q2677503
50067,Ipswich,2336,ENG,England,232,GB,"United Kingdom",52.05917000,1.15545000,Q184775
50068,Irchester,2336,ENG,England,232,GB,"United Kingdom",52.28108000,-0.64510000,Q3341993
50069,Irlam,2336,ENG,England,232,GB,"United Kingdom",53.44253000,-2.42323000,Q2249195
50070,Ironbridge,2336,ENG,England,232,GB,"United Kingdom",52.62795000,-2.48465000,Q1673096
50071,Irthlingborough,2336,ENG,England,232,GB,"United Kingdom",52.32674000,-0.61129000,Q1847208
50082,"Isle of Wight",2336,ENG,England,232,GB,"United Kingdom",50.66667000,-1.33333000,Q9679
50083,Isleham,2336,ENG,England,232,GB,"United Kingdom",52.34289000,0.41212000,Q2289646
50084,"Isles of Scilly",2336,ENG,England,232,GB,"United Kingdom",49.92117000,-6.29431000,Q180209
50085,Isleworth,2336,ENG,England,232,GB,"United Kingdom",51.47518000,-0.34246000,Q2432955
50086,Islington,2336,ENG,England,232,GB,"United Kingdom",51.53622000,-0.10304000,Q2432955
50087,Iver,2336,ENG,England,232,GB,"United Kingdom",51.50000000,-0.50000000,Q2074422
50088,"Iver Heath",2336,ENG,England,232,GB,"United Kingdom",51.53642000,-0.51790000,Q2074422
50089,Ivinghoe,2336,ENG,England,232,GB,"United Kingdom",51.83602000,-0.62983000,Q671595
50090,Ivybridge,2336,ENG,England,232,GB,"United Kingdom",50.39039000,-3.91914000,Q1018121
50091,Iwade,2336,ENG,England,232,GB,"United Kingdom",51.37754000,0.72935000,Q2061295
50092,Ixworth,2336,ENG,England,232,GB,"United Kingdom",52.29893000,0.83410000,Q2504378
50093,Jarrow,2336,ENG,England,232,GB,"United Kingdom",54.98036000,-1.48423000,Q782155
50098,Keadby,2336,ENG,England,232,GB,"United Kingdom",53.59308000,-0.74021000,Q6382086
50100,Kearsley,2336,ENG,England,232,GB,"United Kingdom",53.53333000,-2.38333000,Q3814209
50101,Kedington,2336,ENG,England,232,GB,"United Kingdom",52.09282000,0.48675000,Q2512785
50102,Keelby,2336,ENG,England,232,GB,"United Kingdom",53.57580000,-0.24701000,Q6382761
50103,Keele,2336,ENG,England,232,GB,"United Kingdom",53.00382000,-2.28741000,Q986601
50104,Kegworth,2336,ENG,England,232,GB,"United Kingdom",52.83482000,-1.28042000,Q785918
50105,Keighley,2336,ENG,England,232,GB,"United Kingdom",53.86791000,-1.90664000,Q990168
50107,Kelloe,2336,ENG,England,232,GB,"United Kingdom",54.71894000,-1.47495000,Q11738673
50108,Kelsall,2336,ENG,England,232,GB,"United Kingdom",53.20775000,-2.71242000,Q2022987
50111,Kelvedon,2336,ENG,England,232,GB,"United Kingdom",51.84007000,0.70570000,Q3045836
50112,"Kelvedon Hatch",2336,ENG,England,232,GB,"United Kingdom",51.66739000,0.26814000,Q2260481
50114,Kempsey,2336,ENG,England,232,GB,"United Kingdom",52.13936000,-2.21751000,Q2279121
50115,Kempston,2336,ENG,England,232,GB,"United Kingdom",52.11599000,-0.50044000,Q165486
50116,"Kempston Hardwick",2336,ENG,England,232,GB,"United Kingdom",52.08956000,-0.49908000,Q1519557
50117,Kemsing,2336,ENG,England,232,GB,"United Kingdom",51.30604000,0.22917000,Q947314
50118,Kendal,2336,ENG,England,232,GB,"United Kingdom",54.32681000,-2.74757000,Q994575
50119,Kenilworth,2336,ENG,England,232,GB,"United Kingdom",52.34958000,-1.58276000,Q2281103
50120,Kennington,2336,ENG,England,232,GB,"United Kingdom",51.16740000,0.88491000,Q6390913
50122,Kensworth,2336,ENG,England,232,GB,"United Kingdom",51.85173000,-0.50386000,Q1520292
50123,Kent,2336,ENG,England,232,GB,"United Kingdom",51.16667000,0.66667000,Q21694674
50124,Kenton,2336,ENG,England,232,GB,"United Kingdom",50.63978000,-3.47151000,Q1893512
50125,Keresley,2336,ENG,England,232,GB,"United Kingdom",52.45156000,-1.53319000,Q6393836
50126,Kesgrave,2336,ENG,England,232,GB,"United Kingdom",52.06241000,1.23650000,Q3505487
50127,Kessingland,2336,ENG,England,232,GB,"United Kingdom",52.41987000,1.70878000,Q304218
50128,Keswick,2336,ENG,England,232,GB,"United Kingdom",54.59947000,-3.13256000,Q1025076
50129,Kettering,2336,ENG,England,232,GB,"United Kingdom",52.39836000,-0.72571000,Q984613
50130,Ketton,2336,ENG,England,232,GB,"United Kingdom",52.62804000,-0.55459000,Q2187666
50131,Keyingham,2336,ENG,England,232,GB,"United Kingdom",53.70961000,-0.11325000,Q3263791
50132,Keynsham,2336,ENG,England,232,GB,"United Kingdom",51.41387000,-2.49780000,Q691761
50133,Keyworth,2336,ENG,England,232,GB,"United Kingdom",52.87122000,-1.08991000,Q366623
50134,"Kibworth Harcourt",2336,ENG,England,232,GB,"United Kingdom",52.54439000,-0.99491000,Q19845815
50135,Kidderminster,2336,ENG,England,232,GB,"United Kingdom",52.38819000,-2.25000000,Q844062
50136,Kidlington,2336,ENG,England,232,GB,"United Kingdom",51.82166000,-1.28860000,Q1961674
50137,Kidsgrove,2336,ENG,England,232,GB,"United Kingdom",53.08691000,-2.23777000,Q612117
50141,Kilburn,2336,ENG,England,232,GB,"United Kingdom",53.00580000,-1.43869000,Q2004475
50144,Kilham,2336,ENG,England,232,GB,"United Kingdom",54.06413000,-0.38057000,Q2543706
50146,Killamarsh,2336,ENG,England,232,GB,"United Kingdom",53.32395000,-1.31688000,Q2361686
50153,Kilsby,2336,ENG,England,232,GB,"United Kingdom",52.33375000,-1.17505000,Q2703030
50156,Kimberley,2336,ENG,England,232,GB,"United Kingdom",52.98333000,-1.26667000,Q2464975
50157,Kimbolton,2336,ENG,England,232,GB,"United Kingdom",52.29704000,-0.38916000,Q522398
50158,Kimpton,2336,ENG,England,232,GB,"United Kingdom",51.85089000,-0.29980000,Q6410247
50160,Kineton,2336,ENG,England,232,GB,"United Kingdom",52.15645000,-1.51148000,Q2505748
50161,"King's Clipstone",2336,ENG,England,232,GB,"United Kingdom",53.17690000,-1.10129000,Q2505748
50162,"King's Lynn",2336,ENG,England,232,GB,"United Kingdom",52.75172000,0.39516000,Q157341
50165,"Kings Hill",2336,ENG,England,232,GB,"United Kingdom",51.27437000,0.40237000,Q2540012
50166,"Kings Langley",2336,ENG,England,232,GB,"United Kingdom",51.71395000,-0.45044000,Q19807
50167,"Kings Sutton",2336,ENG,England,232,GB,"United Kingdom",52.02313000,-1.27613000,Q6411116
50168,"Kings Worthy",2336,ENG,England,232,GB,"United Kingdom",51.08862000,-1.29780000,Q2745532
50169,Kingsbridge,2336,ENG,England,232,GB,"United Kingdom",50.28451000,-3.77638000,Q774099
50170,Kingsbury,2336,ENG,England,232,GB,"United Kingdom",52.56106000,-1.67936000,Q519687
50171,Kingsclere,2336,ENG,England,232,GB,"United Kingdom",51.32487000,-1.24339000,Q1215907
50172,Kingskerswell,2336,ENG,England,232,GB,"United Kingdom",50.49915000,-3.58195000,Q1868076
50174,Kingsland,2336,ENG,England,232,GB,"United Kingdom",52.24911000,-2.81542000,Q3784597
50175,Kingsley,2336,ENG,England,232,GB,"United Kingdom",53.26667000,-2.66667000,Q5197445
50176,Kingsteignton,2336,ENG,England,232,GB,"United Kingdom",50.55000000,-3.58333000,Q1215945
50177,"Kingston Bagpuize",2336,ENG,England,232,GB,"United Kingdom",51.68150000,-1.42041000,Q6413462
50178,"Kingston Seymour",2336,ENG,England,232,GB,"United Kingdom",51.39833000,-2.86111000,Q2333642
50179,"Kingston upon Hull",2336,ENG,England,232,GB,"United Kingdom",53.74460000,-0.33525000,Q128147
50180,"Kingston upon Thames",2336,ENG,England,232,GB,"United Kingdom",51.41259000,-0.29740000,Q2321706
50182,Kingswinford,2336,ENG,England,232,GB,"United Kingdom",52.49755000,-2.16889000,Q6413749
50183,Kingswood,2336,ENG,England,232,GB,"United Kingdom",51.45278000,-2.50833000,Q1247835
50184,Kington,2336,ENG,England,232,GB,"United Kingdom",52.20000000,-2.01667000,Q2571399
50188,Kintbury,2336,ENG,England,232,GB,"United Kingdom",51.39958000,-1.44865000,Q2749964
50190,Kinvere,2336,ENG,England,232,GB,"United Kingdom",52.45000000,-2.23333000,Q407193
50191,Kippax,2336,ENG,England,232,GB,"United Kingdom",53.76687000,-1.37099000,Q2562575
50193,"Kirby Muxloe",2336,ENG,England,232,GB,"United Kingdom",52.63025000,-1.22755000,Q6414948
50195,"Kirk Sandall",2336,ENG,England,232,GB,"United Kingdom",53.56211000,-1.06876000,Q232805
50196,Kirkburton,2336,ENG,England,232,GB,"United Kingdom",53.61047000,-1.70292000,Q3152568
50197,Kirkby,2336,ENG,England,232,GB,"United Kingdom",53.48138000,-2.89215000,Q2469070
50200,"Kirkby in Ashfield",2336,ENG,England,232,GB,"United Kingdom",53.09982000,-1.24379000,Q738869
50198,"Kirkby Lonsdale",2336,ENG,England,232,GB,"United Kingdom",54.20259000,-2.59827000,Q1573543
50199,"Kirkby Stephen",2336,ENG,England,232,GB,"United Kingdom",54.47229000,-2.34865000,Q1838138
50201,Kirkbymoorside,2336,ENG,England,232,GB,"United Kingdom",54.27014000,-0.93218000,Q2736102
50205,Kirkham,2336,ENG,England,232,GB,"United Kingdom",53.78244000,-2.87189000,Q1743513
50207,Kirklees,2336,ENG,England,232,GB,"United Kingdom",53.58333000,-1.75000000,Q918975
50212,Kirton,2336,ENG,England,232,GB,"United Kingdom",52.92774000,-0.06008000,Q1955160
50213,"Kirton in Lindsey",2336,ENG,England,232,GB,"United Kingdom",53.47548000,-0.59566000,Q2338783
50214,Kislingbury,2336,ENG,England,232,GB,"United Kingdom",52.22976000,-0.97914000,Q2795697
50215,"Kiveton Park",2336,ENG,England,232,GB,"United Kingdom",53.34120000,-1.25498000,Q1424518
50216,Knaphill,2336,ENG,England,232,GB,"United Kingdom",51.32010000,-0.61584000,Q6421733
50217,Knaresborough,2336,ENG,England,232,GB,"United Kingdom",54.00910000,-1.46851000,Q535902
50218,Knebworth,2336,ENG,England,232,GB,"United Kingdom",51.86674000,-0.18394000,Q386419
50220,Knottingley,2336,ENG,England,232,GB,"United Kingdom",53.70778000,-1.25639000,Q1777543
50221,Knowle,2336,ENG,England,232,GB,"United Kingdom",52.38333000,-1.73333000,Q1777543
50222,Knowsley,2336,ENG,England,232,GB,"United Kingdom",53.41667000,-2.83333000,Q1228523
50223,Knutsford,2336,ENG,England,232,GB,"United Kingdom",53.30289000,-2.37482000,Q1470791
50224,Laceby,2336,ENG,England,232,GB,"United Kingdom",53.54092000,-0.16830000,Q1869642
50225,Lacock,2336,ENG,England,232,GB,"United Kingdom",51.41528000,-2.12194000,Q1230765
50227,Lakenheath,2336,ENG,England,232,GB,"United Kingdom",52.41755000,0.52211000,Q1828371
50228,Lamberhurst,2336,ENG,England,232,GB,"United Kingdom",51.10050000,0.38967000,Q2122861
50229,Lambeth,2336,ENG,England,232,GB,"United Kingdom",51.49635000,-0.11152000,Q2122861
50230,Lambourn,2336,ENG,England,232,GB,"United Kingdom",51.50805000,-1.53105000,Q2273355
50231,Lamesley,2336,ENG,England,232,GB,"United Kingdom",54.91567000,-1.60945000,Q2095219
50235,Lancashire,2336,ENG,England,232,GB,"United Kingdom",53.83333000,-2.50000000,Q21279371
50236,Lancaster,2336,ENG,England,232,GB,"United Kingdom",54.04649000,-2.79988000,Q205905
50237,Lanchester,2336,ENG,England,232,GB,"United Kingdom",54.82108000,-1.74256000,Q861627
50238,Lancing,2336,ENG,England,232,GB,"United Kingdom",50.82882000,-0.32247000,Q1020014
50239,Landrake,2336,ENG,England,232,GB,"United Kingdom",50.42265000,-4.29023000,Q11752791
50240,Langford,2336,ENG,England,232,GB,"United Kingdom",52.05460000,-0.27165000,Q1522728
50241,Langham,2336,ENG,England,232,GB,"United Kingdom",52.69152000,-0.75385000,Q1613198
50242,Langho,2336,ENG,England,232,GB,"United Kingdom",53.80217000,-2.45076000,Q11752814
50244,"Langley Green",2336,ENG,England,232,GB,"United Kingdom",51.12817000,-0.19835000,Q1014104
50245,"Langley Park",2336,ENG,England,232,GB,"United Kingdom",54.79979000,-1.67005000,Q6486281
50246,Langport,2336,ENG,England,232,GB,"United Kingdom",51.03778000,-2.82806000,Q784252
50247,Langtoft,2336,ENG,England,232,GB,"United Kingdom",52.69834000,-0.34040000,Q6486571
50250,"Lark Hill",2336,ENG,England,232,GB,"United Kingdom",51.20000000,-1.81667000,Q738194
50251,Larkfield,2336,ENG,England,232,GB,"United Kingdom",51.30143000,0.44855000,Q738194
50254,"Latchingdon and Snoreham",2336,ENG,England,232,GB,"United Kingdom",51.67160000,0.72578000,Q2502818
50256,Launceston,2336,ENG,England,232,GB,"United Kingdom",50.63699000,-4.36006000,Q287590
50259,Lavendon,2336,ENG,England,232,GB,"United Kingdom",52.17279000,-0.66109000,Q1790266
50260,Lavenham,2336,ENG,England,232,GB,"United Kingdom",52.10861000,0.79617000,Q1808895
50262,"Layer de la Haye",2336,ENG,England,232,GB,"United Kingdom",51.84593000,0.85745000,Q2744886
50263,Leasingham,2336,ENG,England,232,GB,"United Kingdom",53.02573000,-0.42606000,Q6510311
50264,Leatherhead,2336,ENG,England,232,GB,"United Kingdom",51.29652000,-0.33380000,Q1810766
50265,Lechlade,2336,ENG,England,232,GB,"United Kingdom",51.69403000,-1.69128000,Q939609
50266,Leconfield,2336,ENG,England,232,GB,"United Kingdom",53.87730000,-0.45729000,Q2915159
50267,Ledbury,2336,ENG,England,232,GB,"United Kingdom",52.03639000,-2.42635000,Q665330
50268,Ledsham,2336,ENG,England,232,GB,"United Kingdom",53.76322000,-1.30857000,Q665330
50269,Lee-on-the-Solent,2336,ENG,England,232,GB,"United Kingdom",50.80169000,-1.20174000,Q985587
50270,Leeds,2336,ENG,England,232,GB,"United Kingdom",53.79648000,-1.54785000,Q39121
50271,Leek,2336,ENG,England,232,GB,"United Kingdom",53.10434000,-2.02207000,Q2070717
50272,"Leek Wootton",2336,ENG,England,232,GB,"United Kingdom",52.31782000,-1.57933000,Q6516219
50274,Leicester,2336,ENG,England,232,GB,"United Kingdom",52.63860000,-1.13169000,Q83065
50275,Leicestershire,2336,ENG,England,232,GB,"United Kingdom",52.66667000,-1.00000000,Q21272890
50276,Leigh,2336,ENG,England,232,GB,"United Kingdom",53.49642000,-2.51973000,Q2588021
50277,"Leighton Buzzard",2336,ENG,England,232,GB,"United Kingdom",51.91722000,-0.65802000,Q2462645
50278,Leiston,2336,ENG,England,232,GB,"United Kingdom",52.20611000,1.57757000,Q2519667
50279,Lenham,2336,ENG,England,232,GB,"United Kingdom",51.23705000,0.71892000,Q3246334
50282,Leominster,2336,ENG,England,232,GB,"United Kingdom",52.22583000,-2.74491000,Q550424
50284,Lesbury,2336,ENG,England,232,GB,"United Kingdom",55.39832000,-1.62830000,Q1424530
50287,Letchworth,2336,ENG,England,232,GB,"United Kingdom",51.97944000,-0.22840000,Q1010552
50288,"Letchworth Garden City",2336,ENG,England,232,GB,"United Kingdom",51.97938000,-0.22664000,Q19801
50293,Leven,2336,ENG,England,232,GB,"United Kingdom",53.89028000,-0.31783000,Q1811450
50294,Lewes,2336,ENG,England,232,GB,"United Kingdom",50.87398000,0.00880000,Q246884
50295,Leyburn,2336,ENG,England,232,GB,"United Kingdom",54.31004000,-1.83041000,Q2095799
50296,Leyland,2336,ENG,England,232,GB,"United Kingdom",53.69786000,-2.68758000,Q2569138
50297,Leysdown-on-Sea,2336,ENG,England,232,GB,"United Kingdom",51.39730000,0.92156000,Q6538114
50299,Lichfield,2336,ENG,England,232,GB,"United Kingdom",52.68154000,-1.82549000,Q207371
50300,Lidlington,2336,ENG,England,232,GB,"United Kingdom",52.04154000,-0.55914000,Q1520191